{"type":"FeatureCollection","features":[{"type":"Feature","properties":{"id":"isa-exp-BGRPMN1X_East_a","group":"isa","kind":"exploration","company":"BGRPMN1","area_name":"East","area_km2":58904,"area_mi2":22743},"geometry":{"type":"MultiPolygon","coordinates":[[[[-119.41667,13.28333],[-118.0,13.28333],[-118.0,12.0],[-116.06667,12.0],[-116.06667,11.08333],[-119.41667,11.08333],[-119.41667,13.28333]]]]}},{"type":"Feature","properties":{"id":"isa-exp-BMJPMN1_A","group":"isa","kind":"exploration","company":"BMJPMN1","area_name":"Block A","area_km2":43776,"area_mi2":16902},"geometry":{"type":"MultiPolygon","coordinates":[[[[-135.07,13.18],[-134.75,13.18],[-134.75,10.98],[-135.0,10.98],[-135.0,11.25],[-135.3333,11.25],[-135.3333,10.9167],[-136.0,10.9167],[-136.0,10.147],[-137.0,10.147],[-137.0,10.8333],[-136.58,10.8333],[-136.58,11.65],[-137.346,11.65],[-137.346,12.125],[-136.77,12.125],[-136.77,12.23],[-135.89,12.23],[-135.89,12.1],[-135.44,12.1],[-135.44,12.37],[-134.89,12.37],[-134.89,12.73],[-135.07,12.73],[-135.07,13.18]]]]}},{"type":"Feature","properties":{"id":"isa-exp-BMJPMN1_B","group":"isa","kind":"exploration","company":"BMJPMN1","area_name":"Block B","area_km2":16476,"area_mi2":6361},"geometry":{"type":"MultiPolygon","coordinates":[[[[-123.333,11.0],[-122.167,11.0],[-122.167,9.8333],[-123.333,9.8333],[-123.333,11.0]]]]}},{"type":"Feature","properties":{"id":"isa-exp-BMJPMN1_C","group":"isa","kind":"exploration","company":"BMJPMN1","area_name":"Block C","area_km2":9287,"area_mi2":3586},"geometry":{"type":"MultiPolygon","coordinates":[[[[-121.7,10.5],[-121.5,10.5],[-120.791,9.6667],[-120.791,9.333],[-121.7,9.333],[-121.7,10.5]]]]}},{"type":"Feature","properties":{"id":"isa-exp-BMJPMN1_D","group":"isa","kind":"exploration","company":"BMJPMN1","area_name":"Block D","area_km2":3536,"area_mi2":1365},"geometry":{"type":"MultiPolygon","coordinates":[[[[-120.35,10.5],[-120.0,10.5],[-120.0,9.6667],[-120.35,9.6667],[-120.35,10.5]]]]}},{"type":"Feature","properties":{"id":"isa-exp-GSRPMN1X_B6a","group":"isa","kind":"exploration","company":"GSRPMN1","area_name":"GSR B6a","area_km2":41469,"area_mi2":16011},"geometry":{"type":"MultiPolygon","coordinates":[[[[-123.952,15.726],[-122.33333,15.726],[-122.33333,14.16667],[-122.75,14.16667],[-122.75,13.35],[-123.0,13.35],[-123.0,12.93333],[-123.58333,12.93333],[-123.58333,14.08333],[-123.952,14.08333],[-123.952,15.726]]]]}},{"type":"Feature","properties":{"id":"isa-exp-IOMPMN1X_01","group":"isa","kind":"exploration","company":"IOMPMN1","area_name":"IOM1","area_km2":11933,"area_mi2":4607},"geometry":{"type":"MultiPolygon","coordinates":[[[[-120.33333,13.83333],[-120.33333,14.5],[-120.5,14.5],[-120.5,14.6667],[-119.3333,14.6667],[-119.3333,15.0],[-118.8333,15.0],[-118.83333,14.5],[-119.5,14.5],[-119.5,13.83333],[-120.33333,13.83333]]]]}},{"type":"Feature","properties":{"id":"isa-exp-IOMPMN1X_02","group":"isa","kind":"exploration","company":"IOMPMN1","area_name":"IOM2","area_km2":63084,"area_mi2":24357},"geometry":{"type":"MultiPolygon","coordinates":[[[[-121.16667,13.33333],[-119.83333,13.33333],[-119.83333,13.16667],[-119.41667,13.16667],[-119.41667,12.33333],[-119.83333,12.33333],[-119.83333,11.83333],[-119.41667,11.83333],[-119.4166,9.1667],[-119.5833,9.1667],[-119.5833,9.2833],[-119.75,9.2833],[-119.75,9.1667],[-120.0,9.1667],[-120.0,10.5],[-120.5,10.5],[-120.5,10.75],[-121.0,10.75],[-121.0,11.0],[-121.16667,11.0],[-121.16667,13.33333]]]]}},{"type":"Feature","properties":{"id":"isa-exp-YUZHPMN1X_01","group":"isa","kind":"exploration","company":"YUZHPMN1","area_name":"YUZ1","area_km2":13764,"area_mi2":5314},"geometry":{"type":"MultiPolygon","coordinates":[[[[-143.0,10.83333],[-143.0,11.66667],[-142.0,11.66667],[-142.0,11.78958],[-141.61667,11.78958],[-141.61667,12.0],[-141.41953,12.0],[-141.41953,11.41667],[-141.91667,11.41667],[-141.91667,10.83333],[-143.0,10.83333]]]]}},{"type":"Feature","properties":{"id":"isa-exp-YUZHPMN1X_02","group":"isa","kind":"exploration","company":"YUZHPMN1","area_name":"YUZ2","area_km2":61236,"area_mi2":23643},"geometry":{"type":"MultiPolygon","coordinates":[[[[-133.51,12.51833],[-133.51,12.83333],[-134.0,12.83333],[-134.0,13.0],[-134.58333,13.0],[-134.58333,12.0],[-134.37747,12.0],[-134.37747,11.5],[-134.75,11.5],[-134.75,13.5],[-133.83333,13.5],[-133.83333,13.58008],[-132.0,13.58008],[-132.0,14.66667],[-131.5,14.66667],[-131.5,14.33333],[-131.16667,14.33333],[-131.16667,13.75],[-130.0,13.75],[-130.0,13.91667],[-129.16667,13.91667],[-129.16667,13.96667],[-128.58333,13.96667],[-128.58333,14.75],[-128.20833,14.75],[-128.20833,14.625],[-128.15217,14.625],[-128.15217,14.25],[-128.08333,14.25],[-128.08333,14.0],[-128.16667,14.0],[-128.16667,13.91667],[-128.25,13.91667],[-128.25,13.576],[-128.58333,13.576],[-128.58333,13.33667],[-130.0,13.33667],[-130.0,13.33333],[-131.0,13.33333],[-131.0,13.48333],[-132.25,13.48333],[-132.25,12.51833],[-133.51,12.51833]]]]}},{"type":"Feature","properties":{"id":"isa-exp-KOREAPMN1X_01","group":"isa","kind":"exploration","company":"KOREAPMN1","area_name":"KR1 (N3)","area_km2":9923,"area_mi2":3831},"geometry":{"type":"MultiPolygon","coordinates":[[[[-126.0,16.91667],[-125.66667,16.91667],[-125.66667,16.75],[-125.33333,16.75],[-125.33333,16.25],[-125.5,16.25],[-125.5,16.08333],[-125.66667,16.08333],[-125.66667,15.73333],[-126.5,15.73333],[-126.5,16.08333],[-126.2,16.08333],[-126.2,16.25],[-126.08333,16.25],[-126.08333,16.75],[-126.0,16.75],[-126.0,16.91667]]]]}},{"type":"Feature","properties":{"id":"isa-exp-KOREAPMN1X_02","group":"isa","kind":"exploration","company":"KOREAPMN1","area_name":"KR2 (N1)","area_km2":12561,"area_mi2":4850},"geometry":{"type":"MultiPolygon","coordinates":[[[[-133.0,16.83333],[-132.66667,16.83333],[-132.66667,16.41667],[-131.33333,16.41667],[-131.33333,16.58333],[-130.25,16.58333],[-130.25,16.41667],[-130.16667,16.41667],[-130.16667,16.0],[-130.5,16.0],[-130.5,16.16667],[-130.83333,16.16667],[-130.83333,16.38333],[-131.25,16.38333],[-131.25,16.16667],[-132.91667,16.16667],[-132.91667,16.33333],[-133.25,16.33333],[-133.25,16.66667],[-133.0,16.66667],[-133.0,16.83333]]]]}},{"type":"Feature","properties":{"id":"isa-exp-KOREAPMN1X_03","group":"isa","kind":"exploration","company":"KOREAPMN1","area_name":"KR3 (C1)","area_km2":2858,"area_mi2":1103},"geometry":{"type":"MultiPolygon","coordinates":[[[[-129.75,11.08333],[-129.5,11.08333],[-129.5,10.58333],[-129.41667,10.58333],[-129.41667,10.25],[-129.75,10.25],[-129.75,11.08333]]]]}},{"type":"Feature","properties":{"id":"isa-exp-KOREAPMN1X_04","group":"isa","kind":"exploration","company":"KOREAPMN1","area_name":"KR4 (B2)","area_km2":2274,"area_mi2":878},"geometry":{"type":"MultiPolygon","coordinates":[[[[-130.75,10.41667],[-130.5,10.41667],[-130.5,9.66667],[-130.75,9.66667],[-130.75,10.41667]]]]}},{"type":"Feature","properties":{"id":"isa-exp-KOREAPMN1X_05","group":"isa","kind":"exploration","company":"KOREAPMN1","area_name":"KR5 (B2+B1)","area_km2":41533,"area_mi2":16036},"geometry":{"type":"MultiPolygon","coordinates":[[[[-131.16667,11.66667],[-130.5,11.66667],[-130.5,10.66667],[-130.91667,10.66667],[-130.91667,10.41667],[-131.08333,10.41667],[-131.08333,10.0],[-131.33333,10.0],[-131.33333,9.25],[-131.5,9.25],[-131.5,9.08333],[-131.91667,9.08333],[-131.91667,9.5],[-132.83333,9.5],[-132.83333,9.58333],[-133.16667,9.58333],[-133.16667,10.03333],[-132.58333,10.03333],[-132.58333,10.5],[-132.5,10.5],[-132.5,11.0],[-131.5,11.0],[-131.5,11.5],[-131.16667,11.5],[-131.16667,11.66667]]]]}},{"type":"Feature","properties":{"id":"isa-exp-KOREAPMN1X_06","group":"isa","kind":"exploration","company":"KOREAPMN1","area_name":"KR6 (A2)","area_km2":2183,"area_mi2":843},"geometry":{"type":"MultiPolygon","coordinates":[[[[-135.33333,11.25],[-135.0,11.25],[-135.0,10.66667],[-135.25,10.66667],[-135.25,10.83333],[-135.33333,10.83333],[-135.33333,11.25]]]]}},{"type":"Feature","properties":{"id":"isa-exp-KOREAPMN1X_07","group":"isa","kind":"exploration","company":"KOREAPMN1","area_name":"KR7 (A2)","area_km2":3497,"area_mi2":1350},"geometry":{"type":"MultiPolygon","coordinates":[[[[-136.0,10.91667],[-135.75,10.91667],[-135.75,10.83333],[-135.5,10.83333],[-135.5,10.66667],[-135.33333,10.66667],[-135.33333,10.45],[-135.41667,10.45],[-135.41667,10.33333],[-135.83333,10.33333],[-135.83333,10.5],[-136.0,10.5],[-136.0,10.91667]]]]}},{"type":"Feature","properties":{"id":"isa-exp-COMRAPMN1X_COM1a","group":"isa","kind":"exploration","company":"COMRAPMN1","area_name":"COM1a","area_km2":36575,"area_mi2":14122},"geometry":{"type":"MultiPolygon","coordinates":[[[[-154.875,10.8417],[-154.7333,10.8417],[-154.7333,10.875],[-154.375,10.875],[-154.375,11.125],[-154.125,11.125],[-154.125,10.56],[-153.875,10.56],[-153.875,10.125],[-153.375,10.125],[-153.375,9.75],[-153.5833,9.75],[-153.5833,9.8083],[-153.8167,9.8083],[-153.8167,9.8],[-154.15,9.8],[-154.15,9.45],[-153.717,9.45],[-153.717,9.625],[-153.125,9.625],[-153.125,9.375],[-152.875,9.375],[-152.875,9.55],[-151.125,9.55],[-151.125,9.1667],[-151.8417,9.1667],[-151.8417,9.4083],[-152.4083,9.4083],[-152.4083,9.1667],[-152.92,9.1667],[-152.92,9.1333],[-153.45,9.1333],[-153.45,9.05],[-153.1833,9.05],[-153.1833,9.0167],[-152.92,9.0167],[-152.92,8.875],[-153.625,8.875],[-153.625,9.125],[-153.875,9.125],[-153.875,8.875],[-154.0333,8.875],[-154.0333,8.625],[-154.625,8.625],[-154.625,8.6583],[-154.875,8.6583],[-154.875,8.8084],[-154.5833,8.8084],[-154.5833,9.0667],[-154.4167,9.0667],[-154.4167,8.9],[-154.1667,8.9],[-154.1667,8.9667],[-154.0667,8.9667],[-154.0667,9.15],[-154.3333,9.15],[-154.3333,9.1833],[-154.4333,9.1833],[-154.4333,9.2833],[-154.625,9.2833],[-154.625,9.125],[-154.875,9.125],[-154.875,9.8033],[-154.6257,9.8033],[-154.6257,9.7248],[-154.4648,9.7248],[-154.4648,9.9],[-154.875,9.9],[-154.875,10.0333],[-154.7333,10.0333],[-154.7333,9.9833],[-154.6,9.9833],[-154.6,10.0667],[-154.6667,10.0667],[-154.6667,10.1333],[-154.8,10.1333],[-154.8,10.25],[-154.875,10.25],[-154.875,10.8417]]]]}},{"type":"Feature","properties":{"id":"isa-exp-COMRAPMN1X_COM1b","group":"isa","kind":"exploration","company":"COMRAPMN1","area_name":"COM1b","area_km2":2878,"area_mi2":1111},"geometry":{"type":"MultiPolygon","coordinates":[[[[-152.9138,10.125],[-152.8,10.125],[-152.8,10.0833],[-152.4333,10.0833],[-152.4333,10.0167],[-151.9043,10.0167],[-151.9043,9.7333],[-152.055,9.7333],[-152.055,9.82],[-152.32,9.82],[-152.32,9.7333],[-152.625,9.7333],[-152.625,9.95],[-152.9138,9.95],[-152.9138,10.125]]]]}},{"type":"Feature","properties":{"id":"isa-exp-COMRAPMN1X_COM2a","group":"isa","kind":"exploration","company":"COMRAPMN1","area_name":"COM2a","area_km2":4055,"area_mi2":1566},"geometry":{"type":"MultiPolygon","coordinates":[[[[-147.375,8.75],[-146.5938,8.75],[-146.5938,7.9688],[-146.8438,7.9688],[-146.8438,8.375],[-147.0938,8.375],[-147.0938,8.5938],[-147.375,8.5938],[-147.375,8.75]]]]}},{"type":"Feature","properties":{"id":"isa-exp-COMRAPMN1X_COM2b","group":"isa","kind":"exploration","company":"COMRAPMN1","area_name":"COM2b","area_km2":28144,"area_mi2":10867},"geometry":{"type":"MultiPolygon","coordinates":[[[[-145.875,8.5],[-145.5938,8.5],[-145.5938,8.2813],[-145.125,8.2813],[-145.125,8.375],[-144.375,8.375],[-144.375,7.8333],[-144.7833,7.8333],[-144.7833,7.7667],[-144.3,7.7667],[-144.3,7.875],[-143.875,7.875],[-143.875,8.0625],[-143.6875,8.0625],[-143.6875,7.8125],[-143.5625,7.8125],[-143.5625,8.3125],[-142.9375,8.3125],[-142.9375,8.6875],[-142.5625,8.6875],[-142.5625,8.5625],[-142.6875,8.5625],[-142.6875,8.3125],[-142.4375,8.3125],[-142.4375,8.4063],[-142.125,8.4063],[-142.125,8.8125],[-141.9375,8.8125],[-141.9375,8.9663],[-142.125,8.9663],[-142.125,9.2813],[-141.875,9.2813],[-141.875,8.375],[-141.375,8.375],[-141.375,8.125],[-141.625,8.125],[-141.625,7.9375],[-142.125,7.9375],[-142.125,8.125],[-142.9688,8.125],[-142.9688,7.7188],[-143.125,7.7188],[-143.125,7.4375],[-143.875,7.4375],[-143.875,7.625],[-144.875,7.625],[-144.875,7.375],[-145.125,7.375],[-145.125,7.6875],[-144.9375,7.6875],[-144.9375,7.9375],[-145.125,7.9375],[-145.125,8.125],[-145.375,8.125],[-145.375,7.9375],[-145.625,7.9375],[-145.625,8.125],[-145.875,8.125],[-145.875,8.5]]]]}},{"type":"Feature","properties":{"id":"isa-exp-COMRAPMN1X_COM2c","group":"isa","kind":"exploration","company":"COMRAPMN1","area_name":"COM2c","area_km2":3441,"area_mi2":1328},"geometry":{"type":"MultiPolygon","coordinates":[[[[-145.3658,9.125],[-144.9375,9.125],[-144.9375,9.0625],[-144.125,9.0625],[-144.125,8.7333],[-144.2907,8.7333],[-144.2907,8.875],[-145.3658,8.875],[-145.3658,9.125]]]]}},{"type":"Feature","properties":{"id":"isa-exp-DORDPMN1X_DOR1","group":"isa","kind":"exploration","company":"DORDPMN1","area_name":"DOR1","area_km2":57059,"area_mi2":22031},"geometry":{"type":"MultiPolygon","coordinates":[[[[-149.25,11.0],[-148.5,11.0],[-148.5,10.8125],[-147.5,10.8125],[-147.5,11.0],[-147.0,11.0],[-147.0,10.75],[-146.75,10.75],[-146.75,11.0],[-146.125,11.0],[-146.125,11.0625],[-145.8125,11.0625],[-145.8125,10.1875],[-146.25,10.1875],[-146.25,10.375],[-146.53333,10.375],[-146.53333,10.125],[-146.75,10.125],[-146.75,9.625],[-146.5,9.625],[-146.5,9.375],[-146.0,9.375],[-146.0,8.75],[-147.74667,8.75],[-147.74667,10.0],[-148.5,10.0],[-148.5,10.25],[-149.5,10.25],[-149.5,10.75],[-149.25,10.75],[-149.25,11.0]]]]}},{"type":"Feature","properties":{"id":"isa-exp-DORDPMN1X_DOR2","group":"isa","kind":"exploration","company":"DORDPMN1","area_name":"DOR2","area_km2":17986,"area_mi2":6944},"geometry":{"type":"MultiPolygon","coordinates":[[[[-132.91667,15.65],[-132.0,15.65],[-132.0,15.75],[-131.0,15.75],[-131.0,15.33333],[-132.0,15.33333],[-132.0,14.66667],[-132.8,14.29],[-132.91667,14.29],[-132.91667,15.65]]]]}},{"type":"Feature","properties":{"id":"isa-exp-IFREMERPMN1X_01","group":"isa","kind":"exploration","company":"IFREMERPMN1","area_name":"IFR1","area_km2":26074,"area_mi2":10067},"geometry":{"type":"MultiPolygon","coordinates":[[[[-151.0,9.74888],[-149.5,9.74888],[-149.5,8.66667],[-149.75,8.66667],[-149.75,8.25],[-151.0,8.25],[-151.0,9.74888]]]]}},{"type":"Feature","properties":{"id":"isa-exp-IFREMERPMN1X_02","group":"isa","kind":"exploration","company":"IFREMERPMN1","area_name":"IFR2","area_km2":43959,"area_mi2":16973},"geometry":{"type":"MultiPolygon","coordinates":[[[[-132.0,15.33333],[-131.0,15.33333],[-131.0,15.0],[-128.58333,15.0],[-128.58333,13.96667],[-129.16667,13.96667],[-129.16667,13.91667],[-130.0,13.91667],[-130.0,13.75],[-131.16667,13.75],[-131.16667,14.33333],[-131.5,14.33333],[-131.5,14.66667],[-132.0,14.66667],[-132.0,15.33333]]]]}},{"type":"Feature","properties":{"id":"isa-exp-IFREMERPMN1X_03","group":"isa","kind":"exploration","company":"IFREMERPMN1","area_name":"IFR3","area_km2":4959,"area_mi2":1915},"geometry":{"type":"MultiPolygon","coordinates":[[[[-129.3,15.33333],[-129.3,16.0],[-128.58333,16.0],[-128.58333,15.5],[-129.3,15.33333]]]]}},{"type":"Feature","properties":{"id":"isa-exp-BGRPMN1X_West","group":"isa","kind":"exploration","company":"BGRPMN1","area_name":"West","area_km2":15568,"area_mi2":6011},"geometry":{"type":"MultiPolygon","coordinates":[[[[-138.3666,13.5],[-137.5333,13.5],[-137.5333,12.5],[-137.8333,12.5],[-137.8333,11.6333],[-138.3666,11.6333],[-138.3666,13.5]]]]}},{"type":"Feature","properties":{"id":"isa-exp-NORIPMN1X_A","group":"isa","kind":"exploration","company":"NORIPMN1","area_name":"NORI A","area_km2":8930,"area_mi2":3448},"geometry":{"type":"MultiPolygon","coordinates":[[[[-134.583,13.0],[-134.25,13.0],[-134.25,12.5],[-134.067,12.5],[-134.067,12.1933],[-133.833,12.1933],[-133.833,11.5],[-134.377,11.5],[-134.377,12.0],[-134.583,12.0],[-134.583,13.0]]]]}},{"type":"Feature","properties":{"id":"isa-exp-NORIPMN1X_B","group":"isa","kind":"exploration","company":"NORIPMN1","area_name":"NORI B","area_km2":3519,"area_mi2":1359},"geometry":{"type":"MultiPolygon","coordinates":[[[[-134.0,14.0],[-133.25,14.0],[-133.25,13.8667],[-133.2,13.8667],[-133.2,13.5801],[-133.833,13.5801],[-134.0,14.0]]]]}},{"type":"Feature","properties":{"id":"isa-exp-NORIPMN1X_C","group":"isa","kind":"exploration","company":"NORIPMN1","area_name":"NORI C","area_km2":37225,"area_mi2":14373},"geometry":{"type":"MultiPolygon","coordinates":[[[[-122.1667,14.935],[-120.5,14.935],[-120.5,14.5],[-120.75,14.5],[-120.75,14.3333],[-121.833,14.3333],[-121.833,14.0],[-121.333,14.0],[-121.333,13.6667],[-121.167,13.6667],[-121.167,12.0],[-121.6,12.0],[-121.6,12.6],[-122.167,12.6],[-122.167,12.89],[-123.0,12.89],[-123.0,13.35],[-122.5,13.35],[-122.5,13.5],[-122.1667,13.5],[-122.1667,14.935]]]]}},{"type":"Feature","properties":{"id":"isa-exp-NORIPMN1X_D","group":"isa","kind":"exploration","company":"NORIPMN1","area_name":"NORI D","area_km2":25181,"area_mi2":9722},"geometry":{"type":"MultiPolygon","coordinates":[[[[-117.81667,11.08333],[-116.06667,11.08333],[-116.06667,9.895],[-117.81667,9.895],[-117.81667,11.08333]]]]}},{"type":"Feature","properties":{"id":"isa-exp-TOMLPMN1X_A","group":"isa","kind":"exploration","company":"TOMLPMN1","area_name":"TOML A","area_km2":10286,"area_mi2":3971},"geometry":{"type":"MultiPolygon","coordinates":[[[[-152.51,8.1667],[-151.667,8.1667],[-151.667,7.1667],[-152.51,7.1667],[-152.51,8.1667]]]]}},{"type":"Feature","properties":{"id":"isa-exp-TOMLPMN1X_B","group":"isa","kind":"exploration","company":"TOMLPMN1","area_name":"TOML B","area_km2":9960,"area_mi2":3845},"geometry":{"type":"MultiPolygon","coordinates":[[[[-132.8,14.29],[-132.0,14.6667],[-132.0,13.5801],[-133.2,13.5801],[-133.2,13.8667],[-132.8,13.8667],[-132.8,14.29]]]]}},{"type":"Feature","properties":{"id":"isa-exp-TOMLPMN1X_C","group":"isa","kind":"exploration","company":"TOMLPMN1","area_name":"TOML C","area_km2":15823,"area_mi2":6109},"geometry":{"type":"MultiPolygon","coordinates":[[[[-131.0,15.8],[-130.0,15.8],[-130.0,15.333],[-129.3,15.333],[-128.58333,15.5],[-128.58333,15.0],[-131.0,15.0],[-131.0,15.8]]]]}},{"type":"Feature","properties":{"id":"isa-exp-TOMLPMN1X_D","group":"isa","kind":"exploration","company":"TOMLPMN1","area_name":"TOML D","area_km2":7003,"area_mi2":2704},"geometry":{"type":"MultiPolygon","coordinates":[[[[-125.333,13.0833],[-123.583,13.0833],[-123.583,12.75],[-125.333,12.75],[-125.333,13.0833]]]]}},{"type":"Feature","properties":{"id":"isa-exp-TOMLPMN1X_E","group":"isa","kind":"exploration","company":"TOMLPMN1","area_name":"TOML E","area_km2":15828,"area_mi2":6111},"geometry":{"type":"MultiPolygon","coordinates":[[[[-117.81667,11.08333],[-117.81667,9.895],[-118.91667,9.895],[-118.91667,11.08333],[-117.81667,11.08333]]]]}},{"type":"Feature","properties":{"id":"isa-exp-TOMLPMN1X_F","group":"isa","kind":"exploration","company":"TOMLPMN1","area_name":"TOML F","area_km2":15878,"area_mi2":6130},"geometry":{"type":"MultiPolygon","coordinates":[[[[-123.58333,14.08333],[-123.58333,13.125],[-124.375,13.125],[-124.375,13.375],[-125.3333,13.375],[-125.3333,13.75],[-125.0,13.75],[-125.0,14.08333],[-123.58333,14.08333]]]]}},{"type":"Feature","properties":{"id":"isa-exp-GSRPMN1X_B2","group":"isa","kind":"exploration","company":"GSRPMN1","area_name":"GSR B2","area_km2":17768,"area_mi2":6860},"geometry":{"type":"MultiPolygon","coordinates":[[[[-127.76667,14.33333],[-127.76667,15.25],[-127.76667,15.73333],[-126.7,15.73333],[-126.7,14.33333],[-127.76667,14.33333]]]]}},{"type":"Feature","properties":{"id":"isa-exp-GSRPMN1X_B4","group":"isa","kind":"exploration","company":"GSRPMN1","area_name":"GSR B4","area_km2":15753,"area_mi2":6082},"geometry":{"type":"MultiPolygon","coordinates":[[[[-126.0,15.73333],[-125.33333,15.73333],[-125.33333,13.75],[-126.0,13.75],[-126.0,15.73333]]]]}},{"type":"Feature","properties":{"id":"isa-exp-MARAWAPMN1X_01","group":"isa","kind":"exploration","company":"MARAWAPMN1","area_name":"MARAWA 1","area_km2":9767,"area_mi2":3771},"geometry":{"type":"MultiPolygon","coordinates":[[[[-128.117,11.0833],[-128.117,10.8135],[-128.167,10.8135],[-128.167,10.6667],[-128.0,10.6667],[-128.0,10.1088],[-128.833,10.1088],[-128.833,10.25],[-129.01,10.25],[-129.01,10.5387],[-128.833,10.5387],[-128.833,11.0833],[-128.117,11.0833]]]]}},{"type":"Feature","properties":{"id":"isa-exp-MARAWAPMN1X_02","group":"isa","kind":"exploration","company":"MARAWAPMN1","area_name":"MARAWA 2","area_km2":24311,"area_mi2":9386},"geometry":{"type":"MultiPolygon","coordinates":[[[[-126.833,11.5],[-126.25,11.5],[-126.25,11.3333],[-126.0,11.3333],[-126.0,11.1],[-125.0,11.1],[-125.0,11.6833],[-124.5,11.6833],[-124.5,10.6667],[-125.167,10.6667],[-125.167,10.5],[-126.0,10.5],[-126.0,10.3333],[-126.833,10.3333],[-126.833,11.5]]]]}},{"type":"Feature","properties":{"id":"isa-exp-MARAWAPMN1X_03","group":"isa","kind":"exploration","company":"MARAWAPMN1","area_name":"MARAWA 3","area_km2":40595,"area_mi2":15674},"geometry":{"type":"MultiPolygon","coordinates":[[[[-126.25,11.6667],[-126.0,11.6667],[-126.0,12.25],[-125.333,12.25],[-125.333,12.75],[-123.583,12.75],[-123.583,11.3333],[-123.667,11.3333],[-123.667,11.1667],[-124.5,11.1667],[-124.5,11.6833],[-125.0,11.6833],[-125.0,11.1],[-126.0,11.1],[-126.0,11.3422],[-126.25,11.3422],[-126.25,11.6667]]]]}},{"type":"Feature","properties":{"id":"isa-exp-OMSPMN1X_Singapore","group":"isa","kind":"exploration","company":"OMSPMN1","area_name":"OMSingapore","area_km2":58053,"area_mi2":22414},"geometry":{"type":"MultiPolygon","coordinates":[[[[-117.16,12.47],[-117.16,12.0],[-118.0,12.0],[-118.0,13.4333],[-118.667,13.4333],[-118.667,13.5],[-119.25,13.5],[-119.25,13.75],[-119.5,13.75],[-119.5,14.5],[-118.25,14.5],[-118.25,14.75],[-117.25,14.75],[-117.25,14.9667],[-116.0,14.9667],[-116.0,14.0],[-115.0,14.0],[-115.0,13.2],[-115.87,13.2],[-115.87,13.82],[-116.24,13.82],[-116.24,14.0],[-117.26,14.0],[-117.26,14.28],[-117.8,14.28],[-117.8,13.1],[-117.44,13.1],[-117.44,12.47],[-117.16,12.47]]]]}},{"type":"Feature","properties":{"id":"isa-exp-CIICPMN1X_790","group":"isa","kind":"exploration","company":"CIICPMN1","area_name":null,"area_km2":23694,"area_mi2":9148},"geometry":{"type":"MultiPolygon","coordinates":[[[[-128.583,15.3333],[-127.833,15.3333],[-127.833,15.25],[-127.767,15.25],[-127.767,14.3333],[-128.0,14.3333],[-128.0,12.0],[-127.717,12.0],[-127.717,11.6667],[-128.583,11.6667],[-128.583,13.576],[-128.25,13.576],[-128.25,13.9167],[-128.167,13.9167],[-128.167,14.0],[-128.083,14.0],[-128.083,14.25],[-128.152,14.25],[-128.152,14.625],[-128.208,14.625],[-128.208,14.75],[-128.583,14.75],[-128.583,15.3333]]]]}},{"type":"Feature","properties":{"id":"isa-exp-CIICPMN1X_791","group":"isa","kind":"exploration","company":"CIICPMN1","area_name":null,"area_km2":13403,"area_mi2":5175},"geometry":{"type":"MultiPolygon","coordinates":[[[[-126.7,15.73333],[-126.0,15.73333],[-126.0,13.75],[-126.25,13.75],[-126.25,14.33333],[-126.7,14.33333],[-126.7,15.73333]]]]}},{"type":"Feature","properties":{"id":"isa-exp-CIICPMN1X_792","group":"isa","kind":"exploration","company":"CIICPMN1","area_name":null,"area_km2":35891,"area_mi2":13858},"geometry":{"type":"MultiPolygon","coordinates":[[[[-125.33333,16.23333],[-124.33333,16.23333],[-124.33333,16.06667],[-123.952,16.06667],[-123.952,14.08333],[-125.0,14.08333],[-125.0,13.75],[-125.33333,13.75],[-125.33333,16.23333]]]]}},{"type":"Feature","properties":{"id":"isa-exp-CMMPMN1X_Poly1","group":"isa","kind":"exploration","company":"CMMPMN1","area_name":"Poly1","area_km2":8727,"area_mi2":3369},"geometry":{"type":"MultiPolygon","coordinates":[[[[-141.9167,12.5911],[-141.6304,12.5911],[-141.6304,12.4265],[-141.5166,12.4265],[-141.5166,12.276],[-141.6742,12.276],[-141.6742,11.9758],[-141.6227,11.9758],[-141.6227,11.7758],[-142.0057,11.7758],[-142.0057,11.6829],[-142.2765,11.6829],[-142.2765,11.8619],[-142.8383,11.8619],[-142.8383,12.1937],[-142.035,12.1937],[-142.035,12.5436],[-142.4348,12.5436],[-142.4348,12.7029],[-141.9167,12.7029],[-141.9167,12.5911]]]]}},{"type":"Feature","properties":{"id":"isa-exp-CMMPMN1X_Poly2","group":"isa","kind":"exploration","company":"CMMPMN1","area_name":"Poly2","area_km2":7251,"area_mi2":2800},"geometry":{"type":"MultiPolygon","coordinates":[[[[-138.6453,12.7359],[-138.4644,12.7355],[-138.4644,12.4396],[-138.374,12.4396],[-138.374,11.8659],[-138.9414,11.8659],[-138.9414,12.2283],[-138.8451,12.2283],[-138.8451,12.331],[-139.0845,12.331],[-139.0845,12.936],[-138.6453,12.936],[-138.6453,12.7359]]]]}},{"type":"Feature","properties":{"id":"isa-exp-CMMPMN1X_Poly3","group":"isa","kind":"exploration","company":"CMMPMN1","area_name":"Poly3","area_km2":5753,"area_mi2":2221},"geometry":{"type":"MultiPolygon","coordinates":[[[[-122.7389,12.4728],[-122.096,12.4728],[-122.096,12.0],[-123.0,12.0],[-123.0,12.4705],[-122.9031,12.4705],[-122.9031,12.7825],[-122.7389,12.7825],[-122.7389,12.4728]]]]}},{"type":"Feature","properties":{"id":"isa-exp-CMMPMN1X_Poly4","group":"isa","kind":"exploration","company":"CMMPMN1","area_name":"Poly4","area_km2":13154,"area_mi2":5079},"geometry":{"type":"MultiPolygon","coordinates":[[[[-121.4745,16.155],[-121.04161,16.155],[-121.04161,16.2785],[-120.8311,16.2785],[-120.8311,15.8308],[-120.5023,15.8308],[-120.5023,15.303],[-120.7148,15.303],[-120.7148,14.9286],[-121.0976,14.9286],[-121.0976,15.0861],[-121.1734,15.0861],[-121.1734,15.2698],[-121.2757,15.2698],[-121.2757,15.4384],[-121.5154,15.4384],[-121.5154,15.7824],[-121.898,15.7824],[-121.898,16.2804],[-121.4745,16.2804],[-121.4745,16.155]]]]}},{"type":"Feature","properties":{"id":"isa-exp-CMMPMN1X_Poly5","group":"isa","kind":"exploration","company":"CMMPMN1","area_name":"Poly5","area_km2":22765,"area_mi2":8790},"geometry":{"type":"MultiPolygon","coordinates":[[[[-154.875,9.3586],[-155.125,9.3586],[-155.125,9.375],[-155.375,9.375],[-155.375,9.346],[-155.6185,9.3416],[-155.6185,9.5913],[-155.875,9.5913],[-155.875,9.125],[-156.375,9.125],[-156.375,8.625],[-156.875,8.625],[-156.875,9.875],[-155.125,9.875],[-155.125,10.125],[-155.3745,10.125],[-155.3745,10.839],[-154.875,10.839],[-154.875,9.3586]]]]}},{"type":"Feature","properties":{"id":"isa-exp-CMMPMN1X_Poly6","group":"isa","kind":"exploration","company":"CMMPMN1","area_name":"Poly6","area_km2":5342,"area_mi2":2062},"geometry":{"type":"MultiPolygon","coordinates":[[[[-144.8185,11.6068],[-144.3387,11.6068],[-144.3387,11.0],[-145.0,11.0],[-145.0,11.8333],[-144.8185,11.8333],[-144.8185,11.6068]]]]}},{"type":"Feature","properties":{"id":"isa-exp-CMMPMN1X_Poly7","group":"isa","kind":"exploration","company":"CMMPMN1","area_name":"Poly7","area_km2":5530,"area_mi2":2135},"geometry":{"type":"MultiPolygon","coordinates":[[[[-139.089,11.3434],[-138.6339,11.3434],[-138.6339,10.9738],[-139.0258,10.9738],[-139.0258,10.8332],[-139.5,10.8332],[-139.5,11.125],[-139.6,11.125],[-139.6,11.4394],[-139.089,11.4394],[-139.089,11.3434]]]]}},{"type":"Feature","properties":{"id":"isa-exp-CMMPMN1X_Poly8","group":"isa","kind":"exploration","company":"CMMPMN1","area_name":"Poly8","area_km2":4571,"area_mi2":1765},"geometry":{"type":"MultiPolygon","coordinates":[[[[-139.4334,13.5427],[-138.98,13.5427],[-138.98,13.448],[-139.14,13.448],[-139.14,13.058],[-139.8,13.058],[-139.8,13.6691],[-139.4334,13.6691],[-139.4334,13.5427]]]]}},{"type":"Feature","properties":{"id":"isa-exp-UKSRLPMN1X","group":"isa","kind":"exploration","company":"UKSRLPMN1","area_name":"UKSRL","area_km2":58392,"area_mi2":22545},"geometry":{"type":"MultiPolygon","coordinates":[[[[-115.333,11.0],[-116.067,11.0],[-116.067,12.0],[-117.16,12.0],[-117.16,12.47],[-117.44,12.47],[-117.44,13.1],[-117.8,13.1],[-117.8,14.28],[-117.26,14.28],[-117.26,14.0],[-116.24,14.0],[-116.24,13.82],[-115.87,13.82],[-115.87,13.2],[-115.0,13.2],[-115.0,13.0],[-115.333,13.0],[-115.333,11.0]]]]}},{"type":"Feature","properties":{"id":"isa-exp-UKSRLPMN2X","group":"isa","kind":"exploration","company":"UKSRLPMN2","area_name":"UKSRL2","area_km2":74741,"area_mi2":28858},"geometry":{"type":"MultiPolygon","coordinates":[[[[-134.0,13.84],[-134.0,14.0],[-133.833,13.5801],[-133.833,13.5],[-134.75,13.5],[-134.75,13.18],[-135.07,13.18],[-135.07,12.73],[-134.89,12.73],[-134.89,12.37],[-135.44,12.37],[-135.44,12.1],[-135.89,12.1],[-135.89,12.23],[-136.77,12.23],[-136.77,12.125],[-137.346,12.125],[-137.346,11.2],[-136.58,11.2],[-136.58,10.8333],[-137.5,10.8333],[-137.5,9.9833],[-136.833,9.9833],[-136.833,9.60999],[-138.625,9.60999],[-138.625,9.875],[-138.875,9.875],[-138.875,10.125],[-138.625,10.125],[-138.625,10.8333],[-138.374,10.8333],[-138.374,11.6333],[-137.8333,11.6333],[-137.8333,12.5],[-136.0,12.5],[-136.0,13.5],[-137.42,13.5],[-137.42,13.84],[-134.0,13.84]]]]}},{"type":"Feature","properties":{"id":"isa-res-Block01","group":"isa","kind":"reserved","company":null,"area_name":"Block 01","area_km2":20455,"area_mi2":7898},"geometry":{"type":"MultiPolygon","coordinates":[[[[-155.3745,10.839],[-155.3745,10.125],[-155.625,10.125],[-155.625,10.625],[-155.875,10.625],[-155.875,11.125],[-154.625,11.125],[-154.625,10.875],[-154.875,10.875],[-154.875,10.839],[-155.3745,10.839]]],[[[-156.125,10.875],[-156.125,10.375],[-155.875,10.375],[-155.875,10.125],[-156.125,10.125],[-156.125,9.875],[-156.375,9.875],[-156.375,10.125],[-156.875,10.125],[-156.875,10.625],[-156.375,10.625],[-156.375,10.875],[-156.125,10.875]]],[[[-156.125,7.875],[-156.625,7.875],[-156.625,8.625],[-156.125,8.625],[-156.125,7.875]]],[[[-154.875,9.125],[-155.125,9.125],[-155.125,9.359],[-154.875,9.3586],[-154.875,9.125]]],[[[-155.619,9.375],[-155.875,9.375],[-155.875,9.5913],[-155.6185,9.5913],[-155.619,9.375]]],[[[-155.375,9.125],[-155.625,9.125],[-155.625,9.34292],[-155.375,9.34292],[-155.375,9.125]]]]}},{"type":"Feature","properties":{"id":"isa-res-Block10","group":"isa","kind":"reserved","company":null,"area_name":"Block 10","area_km2":38891,"area_mi2":15016},"geometry":{"type":"MultiPolygon","coordinates":[[[[-139.767,13.05],[-139.767,12.35],[-140.1,12.35],[-140.1,12.7333],[-140.767,12.7333],[-140.767,11.4167],[-141.42,11.4167],[-141.41953,12.0],[-141.61667,12.0],[-141.61667,11.9758],[-141.6742,11.9758],[-141.6742,12.276],[-141.5166,12.276],[-141.5166,12.4265],[-141.6304,12.4265],[-141.6304,12.5911],[-141.9167,12.5911],[-141.917,13.0011],[-140.517,13.0011],[-140.517,13.75],[-139.517,13.75],[-139.517,13.6691],[-139.8,13.6691],[-139.8,13.058],[-139.767,13.05]]],[[[-143.0,12.8333],[-143.0,12.3167],[-142.035,12.3167],[-142.035,12.1937],[-142.8383,12.1937],[-142.8383,11.8619],[-142.2765,11.8619],[-142.2765,11.6829],[-142.0,11.6829],[-142.0,11.66667],[-143.0,11.66667],[-143.0,12.0],[-143.721,12.0],[-143.721,12.8333],[-143.0,12.8333]]]]}},{"type":"Feature","properties":{"id":"isa-res-Block11","group":"isa","kind":"reserved","company":null,"area_name":"Block 11","area_km2":31232,"area_mi2":12059},"geometry":{"type":"MultiPolygon","coordinates":[[[[-139.089,11.4394],[-139.5,11.439],[-139.5,13.058],[-139.14,13.058],[-139.14,13.448],[-138.98,13.448],[-138.98,13.5427],[-139.4334,13.5427],[-139.4334,13.6691],[-139.5,13.669],[-139.5,14.25],[-138.385,14.25],[-138.38546,12.4396],[-138.4644,12.4396],[-138.4644,12.7355],[-138.6453,12.7359],[-138.6453,12.936],[-139.0845,12.936],[-139.0845,12.331],[-138.8451,12.331],[-138.8451,12.2283],[-138.9414,12.2283],[-138.9414,11.8659],[-138.374,11.866],[-138.374,10.8333],[-139.0258,10.833],[-139.0258,10.9738],[-138.6339,10.9738],[-138.6339,11.3434],[-139.089,11.3434],[-139.089,11.4394]]]]}},{"type":"Feature","properties":{"id":"isa-res-Block14","group":"isa","kind":"reserved","company":null,"area_name":"Block 14","area_km2":23884,"area_mi2":9222},"geometry":{"type":"MultiPolygon","coordinates":[[[[-134.0,15.91667],[-132.91667,15.91667],[-132.91667,14.29],[-132.8,14.29],[-132.8,13.86667],[-133.25,13.86667],[-133.25,14.0],[-133.53333,14.0],[-133.53333,14.35],[-134.0,14.35],[-134.0,15.91667]]]]}},{"type":"Feature","properties":{"id":"isa-res-Block15","group":"isa","kind":"reserved","company":null,"area_name":"Block 15","area_km2":1952,"area_mi2":753},"geometry":{"type":"MultiPolygon","coordinates":[[[[-134.0,14.0],[-134.0,14.35],[-133.53333,14.35],[-133.533,14.0],[-134.0,14.0]]]]}},{"type":"Feature","properties":{"id":"isa-res-Block16","group":"isa","kind":"reserved","company":null,"area_name":"Block 16","area_km2":7909,"area_mi2":3054},"geometry":{"type":"MultiPolygon","coordinates":[[[[-129.3,16.0],[-129.3,15.333],[-130.0,15.333],[-130.0,15.8],[-131.0,15.8],[-131.0,16.0],[-129.3,16.0]]]]}},{"type":"Feature","properties":{"id":"isa-res-Block17","group":"isa","kind":"reserved","company":null,"area_name":"Block 17","area_km2":37328,"area_mi2":14413},"geometry":{"type":"MultiPolygon","coordinates":[[[[-130.25,16.6667],[-130.083,16.6667],[-130.083,16.8333],[-129.5,16.8333],[-129.5,16.6667],[-128.833,16.6667],[-128.833,16.8333],[-128.5,16.8333],[-128.5,16.6667],[-128.167,16.6667],[-128.167,16.5833],[-127.5,16.5833],[-127.5,16.3333],[-127.167,16.3333],[-127.167,16.6667],[-126.833,16.6667],[-126.833,17.1667],[-126.0,17.1667],[-126.0,16.7525],[-126.167,16.7525],[-126.167,16.25],[-126.75,16.25],[-126.75,16.0],[-127.0,16.0],[-127.0,15.7333],[-128.583,15.7333],[-128.583,16.0],[-129.167,16.0],[-129.167,16.1667],[-130.0,16.1667],[-130.0,16.3333],[-130.167,16.3333],[-130.16667,16.41667],[-130.25,16.4167],[-130.25,16.6667]]]]}},{"type":"Feature","properties":{"id":"isa-res-Block18","group":"isa","kind":"reserved","company":null,"area_name":"Block 18","area_km2":7928,"area_mi2":3061},"geometry":{"type":"MultiPolygon","coordinates":[[[[-128.833,10.1088],[-128.0,10.1088],[-128.0,9.91667],[-127.083,9.91667],[-127.083,9.41667],[-128.083,9.41667],[-128.083,9.66667],[-128.25,9.66667],[-128.25,10.0],[-128.833,10.0],[-128.833,10.1088]]]]}},{"type":"Feature","properties":{"id":"isa-res-Block02","group":"isa","kind":"reserved","company":null,"area_name":"Block 02","area_km2":33246,"area_mi2":12836},"geometry":{"type":"MultiPolygon","coordinates":[[[[-151.66667,8.58333],[-151.667,8.1667],[-152.51,8.1667],[-152.51,7.1667],[-152.83333,7.16667],[-152.83333,8.16667],[-154.0,8.16667],[-154.0,8.875],[-152.92,8.875],[-152.92,9.16667],[-151.0,9.16667],[-151.0,8.58333],[-151.66667,8.58333]]]]}},{"type":"Feature","properties":{"id":"isa-res-Block20","group":"isa","kind":"reserved","company":null,"area_name":"Block 20","area_km2":4820,"area_mi2":1861},"geometry":{"type":"MultiPolygon","coordinates":[[[[-123.333,12.9333],[-123.333,11.3333],[-123.583,11.3333],[-123.58333,12.93333],[-123.333,12.9333]]]]}},{"type":"Feature","properties":{"id":"isa-res-Block22","group":"isa","kind":"reserved","company":null,"area_name":"Block 22","area_km2":27041,"area_mi2":10441},"geometry":{"type":"MultiPolygon","coordinates":[[[[-120.667,16.4167],[-120.667,15.8333],[-120.8311,15.8308],[-120.8311,16.2785],[-121.04161,16.2785],[-121.04161,16.155],[-121.4745,16.155],[-121.4745,16.2804],[-121.898,16.2804],[-121.898,15.7824],[-121.5154,15.7824],[-121.5154,15.4384],[-121.2757,15.4384],[-121.2757,15.2698],[-121.1734,15.2698],[-121.1734,15.0861],[-121.0976,15.0861],[-121.09575,14.935],[-122.1667,14.935],[-122.167,14.0],[-122.333,14.0],[-122.333,16.3333],[-121.333,16.3333],[-121.333,16.4167],[-120.667,16.4167]]],[[[-122.167,12.89],[-122.167,12.6],[-121.6,12.6],[-121.6,12.0],[-122.096,12.0],[-122.096,12.4728],[-122.7389,12.4728],[-122.7389,12.7825],[-122.9031,12.7825],[-122.9031,12.4705],[-123.0,12.4705],[-123.0,12.89],[-122.167,12.89]]],[[[-120.333,15.3333],[-120.5,15.3333],[-120.5023,15.8308],[-120.333,15.8333],[-120.333,15.3333]]],[[[-120.5,14.935],[-120.7148,14.93425],[-120.7148,15.303],[-120.5,15.303],[-120.5,14.935]]]]}},{"type":"Feature","properties":{"id":"isa-res-Block03","group":"isa","kind":"reserved","company":null,"area_name":"Block 03","area_km2":29850,"area_mi2":11525},"geometry":{"type":"MultiPolygon","coordinates":[[[[-149.5,8.66667],[-149.5,10.25],[-148.5,10.25],[-148.5,10.0],[-147.74667,10.0],[-147.74667,8.66667],[-148.25,8.66667],[-148.25,8.875],[-148.875,8.875],[-148.875,8.66667],[-149.5,8.66667]]]]}},{"type":"Feature","properties":{"id":"isa-res-Block04","group":"isa","kind":"reserved","company":null,"area_name":"Block 04","area_km2":36767,"area_mi2":14196},"geometry":{"type":"MultiPolygon","coordinates":[[[[-146.28602,11.0],[-146.0,11.25],[-146.0,11.33333],[-145.5,11.33333],[-145.5,11.83333],[-145.0,11.83333],[-145.0,9.5],[-145.5,9.5],[-145.5,8.5],[-146.0,8.5],[-146.0,9.375],[-146.5,9.375],[-146.5,9.625],[-146.75,9.625],[-146.75,10.125],[-146.53333,10.125],[-146.53333,10.375],[-146.25,10.375],[-146.25,10.1875],[-145.8125,10.1875],[-145.8125,11.0625],[-146.125,11.0625],[-146.125,11.0],[-146.28602,11.0]]]]}},{"type":"Feature","properties":{"id":"isa-res-Block06","group":"isa","kind":"reserved","company":null,"area_name":"Block 06","area_km2":96248,"area_mi2":37161},"geometry":{"type":"MultiPolygon","coordinates":[[[[-140.767,12.7333],[-140.1,12.7333],[-140.1,12.375],[-140.375,12.375],[-140.375,11.625],[-139.875,11.625],[-139.875,12.35],[-139.767,12.35],[-139.767,12.6645],[-139.5,12.6645],[-139.5,11.439],[-139.6,11.4394],[-139.6,11.125],[-140.125,11.125],[-140.125,11.375],[-140.375,11.375],[-140.375,11.125],[-140.875,11.125],[-140.875,10.625],[-140.375,10.625],[-140.375,10.375],[-141.125,10.375],[-141.125,10.125],[-140.875,10.125],[-140.875,9.875],[-140.625,9.875],[-140.625,10.125],[-139.625,10.125],[-139.625,10.375],[-140.125,10.375],[-140.125,10.8333],[-139.375,10.8333],[-139.375,10.125],[-139.125,10.125],[-139.125,10.625],[-139.026,10.625],[-139.026,10.8333],[-138.625,10.8333],[-138.625,10.125],[-138.875,10.125],[-138.875,9.875],[-138.625,9.875],[-138.625,9.625],[-139.375,9.625],[-139.375,9.375],[-139.125,9.375],[-139.125,9.125],[-138.375,9.125],[-138.375,8.875],[-139.375,8.875],[-139.375,8.625],[-139.625,8.625],[-139.625,9.125],[-140.125,9.125],[-140.125,9.625],[-140.875,9.625],[-140.875,9.375],[-140.625,9.375],[-140.625,9.125],[-140.375,9.125],[-140.375,8.875],[-139.875,8.875],[-139.875,8.625],[-140.125,8.625],[-140.125,8.375],[-139.875,8.375],[-139.875,8.125],[-140.125,8.125],[-140.125,7.875],[-141.375,7.875],[-141.375,7.625],[-141.625,7.625],[-141.625,8.125],[-141.375,8.125],[-141.375,8.375],[-141.875,8.375],[-141.875,8.625],[-141.625,8.625],[-141.625,9.625],[-141.375,9.625],[-141.375,9.875],[-142.25,9.875],[-142.25,10.125],[-141.625,10.125],[-141.625,10.375],[-142.25,10.375],[-142.25,10.625],[-141.875,10.625],[-141.875,10.875],[-141.125,10.875],[-141.125,11.125],[-141.625,11.125],[-141.625,11.4167],[-140.767,11.4167],[-140.767,11.625],[-140.625,11.625],[-140.625,12.375],[-140.767,12.375],[-140.767,12.7333]]]]}},{"type":"Feature","properties":{"id":"isa-res-Block07","group":"isa","kind":"reserved","company":null,"area_name":"Block 07","area_km2":7527,"area_mi2":2906},"geometry":{"type":"MultiPolygon","coordinates":[[[[-145.625,12.625],[-145.375,12.625],[-145.375,12.375],[-145.125,12.375],[-145.125,12.125],[-144.625,12.125],[-144.625,11.875],[-145.625,11.875],[-145.625,11.625],[-145.875,11.625],[-145.875,12.375],[-145.625,12.375],[-145.625,12.625]]]]}},{"type":"Feature","properties":{"id":"isa-res-Block08","group":"isa","kind":"reserved","company":null,"area_name":"Block 08","area_km2":1031,"area_mi2":398},"geometry":{"type":"MultiPolygon","coordinates":[[[[-142.167,12.7083],[-142.167,12.875],[-141.917,12.875],[-141.917,12.7029],[-142.4348,12.7029],[-142.4348,12.5436],[-142.035,12.5436],[-142.035,12.3167],[-142.167,12.3167],[-142.167,12.5417],[-142.5,12.5417],[-142.5,12.7083],[-142.167,12.7083]]]]}},{"type":"Feature","properties":{"id":"isa-res-Block09","group":"isa","kind":"reserved","company":null,"area_name":"Block 09","area_km2":8419,"area_mi2":3251},"geometry":{"type":"MultiPolygon","coordinates":[[[[-143.632,11.0],[-144.3387,11.0],[-144.3387,11.6068],[-144.8185,11.6068],[-144.8185,11.8333],[-143.632,11.8333],[-143.632,11.0]]]]}},{"type":"Feature","properties":{"id":"isa-res-Block05","group":"isa","kind":"reserved","company":null,"area_name":"Block 05","area_km2":132711,"area_mi2":51240},"geometry":{"type":"MultiPolygon","coordinates":[[[[-146.0,12.8333],[-146.0,11.25],[-146.317,11.0],[-149.5,11.0],[-149.5,9.7489],[-151.0,9.7489],[-151.0,12.8333],[-146.0,12.8333]]]]}},{"type":"Feature","properties":{"id":"isa-res-Block25","group":"isa","kind":"reserved","company":null,"area_name":"Block 25","area_km2":13088,"area_mi2":5053},"geometry":{"type":"MultiPolygon","coordinates":[[[[-119.41667,11.08333],[-118.91667,11.08333],[-118.91667,9.895],[-116.06667,9.895],[-116.06667,9.75],[-119.41667,9.75],[-119.41667,11.08333]]]]}},{"type":"Feature","properties":{"id":"isa-res-Block26","group":"isa","kind":"reserved","company":null,"area_name":"Block 26","area_km2":18402,"area_mi2":7105},"geometry":{"type":"MultiPolygon","coordinates":[[[[-137.53333,12.5],[-137.53333,13.5],[-136.0,13.5],[-136.0,12.5],[-137.53333,12.5]]]]}},{"type":"Feature","properties":{"id":"isa-res-Block27","group":"isa","kind":"reserved","company":null,"area_name":"Block 27","area_km2":39470,"area_mi2":15239},"geometry":{"type":"MultiPolygon","coordinates":[[[[-134.75,11.5],[-133.83333,11.5],[-133.83333,11.6667],[-133.66667,11.6667],[-133.66667,11.0],[-133.5,11.0],[-133.5,10.5],[-132.58333,10.5],[-132.58333,10.0333],[-133.16667,10.0333],[-133.16667,9.79749],[-134.1293,9.79749],[-134.1293,10.98],[-134.75,10.98],[-134.75,11.5]]],[[[-135.33333,10.9167],[-135.33333,10.8333],[-135.25,10.8333],[-135.25,10.6667],[-134.568,10.6667],[-134.568,10.0997],[-135.25,10.0997],[-135.25,9.60999],[-136.0,9.60999],[-136.0,10.5],[-135.83333,10.5],[-135.83333,10.3333],[-135.41667,10.3333],[-135.41667,10.45],[-135.33333,10.45],[-135.33333,10.6667],[-135.5,10.6667],[-135.5,10.8333],[-135.75,10.8333],[-135.75,10.9167],[-135.33333,10.9167]]],[[[-137.346,11.65],[-136.58,11.65],[-136.58,11.2],[-137.346,11.2],[-137.346,11.65]]]]}},{"type":"Feature","properties":{"id":"isa-res-Block23","group":"isa","kind":"reserved","company":null,"area_name":"Block 23","area_km2":37521,"area_mi2":14487},"geometry":{"type":"MultiPolygon","coordinates":[[[[-122.167,11.0],[-123.333,11.0],[-123.333,10.5],[-124.5,10.5],[-124.5,11.0],[-123.667,11.0],[-123.667,11.3333],[-122.167,11.3333],[-122.167,11.0]]],[[[-122.167,11.0],[-121.5,11.0],[-121.5,10.5],[-121.7,10.5],[-121.7,9.3333],[-122.0,9.3333],[-122.0,9.6667],[-122.5,9.6667],[-122.5,9.8333],[-122.167,9.8333],[-122.167,11.0]]],[[[-121.5,10.5],[-120.35,10.5],[-120.35,9.6667],[-120.791,9.6667],[-121.5,10.5]]],[[[-121.5,8.6667],[-121.5,9.333],[-120.791,9.333],[-120.791,8.6667],[-121.5,8.6667]]]]}},{"type":"Feature","properties":{"id":"isa-res-Block12","group":"isa","kind":"reserved","company":null,"area_name":"Block 12","area_km2":10332,"area_mi2":3989},"geometry":{"type":"MultiPolygon","coordinates":[[[[-137.0,10.8333],[-137.0,10.147],[-136.0,10.147],[-136.0,9.66667],[-136.833,9.66667],[-136.833,9.98333],[-137.5,9.98333],[-137.5,10.8333],[-137.0,10.8333]]]]}},{"type":"Feature","properties":{"id":"isa-im-A","group":"isa","kind":"application","company":"IM","area_name":"Area A","area_km2":11510,"area_mi2":4444},"geometry":{"type":"MultiPolygon","coordinates":[[[[-136.0,13.125],[-136.0,12.5],[-137.5333,12.5],[-137.5333,13.125],[-136.0,13.125]]]]}},{"type":"Feature","properties":{"id":"isa-im-B","group":"isa","kind":"application","company":"IM","area_name":"Area B","area_km2":6625,"area_mi2":2558},"geometry":{"type":"MultiPolygon","coordinates":[[[[-133.833,11.6667],[-133.6667,11.6667],[-133.6667,10.77686],[-134.1293,10.77686],[-134.1293,11.2],[-134.75,11.2],[-134.75,11.5],[-133.833,11.5],[-133.833,11.6667]]]]}},{"type":"Feature","properties":{"id":"isa-im-C","group":"isa","kind":"application","company":"IM","area_name":"Area C","area_km2":25958,"area_mi2":10023},"geometry":{"type":"MultiPolygon","coordinates":[[[[-132.9103,15.9167],[-132.9103,14.29],[-132.8,14.29],[-132.8,13.8667],[-133.25,13.8667],[-133.25,14.0],[-134.0,14.0],[-134.0,15.9167],[-132.9103,15.9167]]]]}},{"type":"Feature","properties":{"id":"isa-im-D","group":"isa","kind":"application","company":"IM","area_name":"Area D","area_km2":7987,"area_mi2":3084},"geometry":{"type":"MultiPolygon","coordinates":[[[[-131.0,16.004],[-129.3,16.004],[-129.3,15.3333],[-130.0,15.3333],[-130.0,15.8],[-131.0,15.8],[-131.0,16.004]]]]}},{"type":"Feature","properties":{"id":"isa-im-E","group":"isa","kind":"application","company":"IM","area_name":"Area E","area_km2":9557,"area_mi2":3690},"geometry":{"type":"MultiPolygon","coordinates":[[[[-130.083,16.8333],[-129.5,16.8333],[-129.5,16.6667],[-128.8376,16.6667],[-128.8376,16.004],[-129.1667,16.004],[-129.1667,16.1667],[-130.0,16.1667],[-130.0,16.3299],[-130.1667,16.3299],[-130.1667,16.4191],[-130.25,16.4191],[-130.25,16.6667],[-130.083,16.6667],[-130.083,16.8333]]]]}},{"type":"Feature","properties":{"id":"isa-im-F","group":"isa","kind":"application","company":"IM","area_name":"Area F","area_km2":13351,"area_mi2":5155},"geometry":{"type":"MultiPolygon","coordinates":[[[[-125.9972,17.1613],[-125.9972,16.7525],[-126.167,16.7525],[-126.167,16.25],[-126.75,16.25],[-126.75,16.0],[-127.0,16.0],[-127.0,15.7333],[-127.5493,15.7333],[-127.5493,16.1667],[-127.167,16.1667],[-127.167,16.6667],[-126.833,16.6667],[-126.833,17.1613],[-125.9972,17.1613]]]]}},{"type":"Feature","properties":{"id":"isa-apei-10","group":"isa","kind":"apei","company":null,"area_name":"APEI 10","area_km2":160301,"area_mi2":61893},"geometry":{"type":"MultiPolygon","coordinates":[[[[-143.02904,16.5154],[-143.03569,12.9082],[-146.76935,12.92151],[-146.76935,16.5154],[-146.76935,16.5154],[-143.02904,16.5154]]]]}},{"type":"Feature","properties":{"id":"isa-apei-11","group":"isa","kind":"apei","company":null,"area_name":"APEI 11","area_km2":160000,"area_mi2":61776},"geometry":{"type":"MultiPolygon","coordinates":[[[[-119.415,9.75],[-115.82174,9.75],[-115.82174,6.09798],[-119.415,6.09798],[-119.415,9.75]]]]}},{"type":"Feature","properties":{"id":"isa-apei-13","group":"isa","kind":"apei","company":null,"area_name":"APEI 13","area_km2":85511,"area_mi2":33016},"geometry":{"type":"MultiPolygon","coordinates":[[[[-128.58333,11.6667],[-128.58333,11.0833],[-130.5,11.0833],[-130.5,11.66668],[-131.16667,11.66667],[-132.17659,11.66667],[-132.17659,13.33333],[-128.58333,13.33333],[-128.58333,11.6667]]]]}},{"type":"Feature","properties":{"id":"isa-apei-12","group":"isa","kind":"apei","company":null,"area_name":"APEI 12","area_km2":126739,"area_mi2":48934},"geometry":{"type":"MultiPolygon","coordinates":[[[[-115.0,14.55974],[-111.40674,14.55974],[-111.40674,13.42342],[-111.69237,13.22553],[-111.70007,13.22007],[-111.70764,13.21445],[-111.7151,13.20868],[-111.72244,13.20276],[-111.72806,13.19805],[-111.7336,13.19326],[-111.73906,13.18838],[-111.74444,13.18341],[-111.7453,13.18261],[-111.75433,13.1739],[-112.17153,12.75946],[-112.17804,12.75285],[-112.1844,12.74611],[-112.19063,12.73925],[-112.19671,12.73226],[-112.1987,12.72985],[-112.19938,12.72904],[-112.20067,12.72752],[-112.20352,12.7241],[-112.20747,12.71938],[-112.21406,12.71107],[-112.22045,12.70262],[-112.22664,12.69402],[-112.56221,12.215],[-112.56735,12.20749],[-112.56935,12.20438],[-112.57231,12.19986],[-112.5743,12.19675],[-112.57717,12.19217],[-112.57914,12.18905],[-112.58381,12.18125],[-112.58912,12.17191],[-112.5942,12.16245],[-112.59906,12.15288],[-112.60368,12.1432],[-112.84799,11.61435],[-112.85166,11.60619],[-112.85516,11.59795],[-112.85849,11.58966],[-112.86166,11.5813],[-112.86529,11.57104],[-112.86866,11.5607],[-112.87179,11.55028],[-112.87465,11.5398],[-113.02085,10.97741],[-113.02298,10.96886],[-113.02494,10.96027],[-113.02673,10.95164],[-113.02835,10.94299],[-113.03013,10.93212],[-113.03165,10.92121],[-113.0329,10.91027],[-113.03387,10.8993],[-113.0374,10.85321],[-115.0,10.85321],[-115.0,14.55974]]]]}},{"type":"Feature","properties":{"id":"isa-apei-01","group":"isa","kind":"apei","company":null,"area_name":"APEI 01","area_km2":159369,"area_mi2":61533},"geometry":{"type":"MultiPolygon","coordinates":[[[[-155.12582,11.18136],[-155.12582,14.77864],[-155.12582,14.77864],[-151.43418,14.77864],[-151.43418,14.77864],[-151.43418,11.18136],[-151.43418,11.18136],[-155.12582,11.18136],[-155.12582,11.18136]]]]}},{"type":"Feature","properties":{"id":"isa-apei-04","group":"isa","kind":"apei","company":null,"area_name":"APEI 04","area_km2":159370,"area_mi2":61533},"geometry":{"type":"MultiPolygon","coordinates":[[[[-151.22243,4.65103],[-151.22243,8.24926],[-151.22243,8.24926],[-147.60128,8.24926],[-147.60128,8.24926],[-147.60128,4.65103],[-147.60128,4.65103],[-151.22243,4.65103],[-151.22243,4.65103]]]]}},{"type":"Feature","properties":{"id":"isa-apei-07","group":"isa","kind":"apei","company":null,"area_name":"APEI 07","area_km2":159274,"area_mi2":61496},"geometry":{"type":"MultiPolygon","coordinates":[[[[-144.35469,2.89136],[-144.35469,6.48864],[-144.35469,6.48864],[-140.74531,6.48864],[-140.74531,6.48864],[-140.74531,2.89136],[-140.74531,2.89136],[-144.35469,2.89136],[-144.35469,2.89136]]]]}},{"type":"Feature","properties":{"id":"isa-apei-02","group":"isa","kind":"apei","company":null,"area_name":"APEI 02","area_km2":159401,"area_mi2":61545},"geometry":{"type":"MultiPolygon","coordinates":[[[[-137.74296,13.85189],[-137.74296,17.44899],[-137.74296,17.44899],[-134.00731,17.44899],[-134.00731,17.44899],[-134.00731,13.85189],[-134.00731,13.85189],[-137.74296,13.85189],[-137.74296,13.85189]]]]}},{"type":"Feature","properties":{"id":"isa-apei-03","group":"isa","kind":"apei","company":null,"area_name":"APEI 03","area_km2":159488,"area_mi2":61579},"geometry":{"type":"MultiPolygon","coordinates":[[[[-129.6681,17.16567],[-129.6681,20.76296],[-129.6681,20.76296],[-125.86428,20.76296],[-125.86428,20.76296],[-125.86428,17.16567],[-125.86428,17.16567],[-129.6681,17.16567],[-129.6681,17.16567]]]]}},{"type":"Feature","properties":{"id":"isa-apei-08","group":"isa","kind":"apei","company":null,"area_name":"APEI 08","area_km2":159285,"area_mi2":61500},"geometry":{"type":"MultiPolygon","coordinates":[[[[-133.08926,4.41136],[-133.08926,8.00864],[-133.08926,8.00864],[-129.47074,8.00864],[-129.47074,8.00864],[-129.47074,4.41136],[-129.47074,4.41136],[-133.08926,4.41136],[-133.08926,4.41136]]]]}},{"type":"Feature","properties":{"id":"isa-apei-09","group":"isa","kind":"apei","company":null,"area_name":"APEI 09","area_km2":159307,"area_mi2":61509},"geometry":{"type":"MultiPolygon","coordinates":[[[[-127.02367,6.72289],[-127.02367,10.32018],[-127.02367,10.32018],[-123.38621,10.32018],[-123.38621,10.32018],[-123.38621,6.72289],[-123.38621,6.72289],[-127.02367,6.72289],[-127.02367,6.72289]]]]}},{"type":"Feature","properties":{"id":"isa-apei-05","group":"isa","kind":"apei","company":null,"area_name":"APEI 05","area_km2":160450,"area_mi2":61950},"geometry":{"type":"MultiPolygon","coordinates":[[[[-138.31774,5.9923],[-138.31774,9.60264],[-138.31774,9.60264],[-134.67387,9.60264],[-134.67387,9.60264],[-134.67387,5.9923],[-134.67387,5.9923],[-138.31774,5.9923],[-138.31774,5.9923]]]]}},{"type":"Feature","properties":{"id":"isa-apei-06","group":"isa","kind":"apei","company":null,"area_name":"APEI 06","area_km2":153831,"area_mi2":59395},"geometry":{"type":"MultiPolygon","coordinates":[[[[-123.32725,16.47942],[-123.32725,20.01212],[-123.32725,20.01212],[-119.60665,20.01212],[-119.60665,20.01212],[-119.60665,16.47942],[-119.60665,16.47942],[-123.32725,16.47942],[-123.32725,16.47942]]]]}}]}