{"type":"FeatureCollection","features":[{"type":"Feature","properties":{"id":"ov-1","group":"overlap","members":"us-lm-1|isa-apei-13","area_km2":72011,"area_mi2":27804},"geometry":{"type":"MultiPolygon","coordinates":[[[[-131.0,13.33333],[-131.0,13.33333],[-130.0,13.33333],[-130.0,13.33333],[-128.58333,13.33333],[-128.58333,11.66667],[-130.5,11.66667],[-130.5,11.66668],[-131.16667,11.66667],[-131.25,11.66667],[-132.17659,11.66667],[-132.17659,13.33333],[-131.0,13.33333]]]]}},{"type":"Feature","properties":{"id":"ov-2","group":"overlap","members":"us-tmc-8|isa-exp-NORIPMN1X_C","area_km2":37195,"area_mi2":14361},"geometry":{"type":"MultiPolygon","coordinates":[[[[-121.0976,14.935],[-121.0976,14.9286],[-120.7148,14.9286],[-120.7148,14.93425],[-120.5,14.935],[-120.5,14.935],[-120.5,14.5],[-120.75,14.5],[-120.75,14.3333],[-120.98963,14.3333],[-120.98963,14.3333],[-121.833,14.3333],[-121.833,14.0],[-121.333,14.0],[-121.333,13.6667],[-121.167,13.6667],[-121.167,12.0],[-121.6,12.0],[-121.6,12.6],[-122.167,12.6],[-122.167,12.89],[-122.24198,12.89],[-123.0,12.89],[-123.0,13.35],[-122.75,13.35],[-122.75,13.35],[-122.5,13.35],[-122.5,13.5],[-122.1667,13.5],[-122.1667,14.935],[-121.0976,14.935]]]]}},{"type":"Feature","properties":{"id":"ov-3","group":"overlap","members":"us-tmc-1|isa-exp-NORIPMN1X_D","area_km2":25180,"area_mi2":9722},"geometry":{"type":"MultiPolygon","coordinates":[[[[-116.067,11.08333],[-116.067,11.0],[-116.06667,11.0],[-116.06667,9.895],[-117.81667,9.895],[-117.81667,11.08333],[-116.067,11.08333]]]]}},{"type":"Feature","properties":{"id":"ov-4","group":"overlap","members":"us-seax-6|isa-res-Block11","area_km2":17691,"area_mi2":6831},"geometry":{"type":"MultiPolygon","coordinates":[[[[-139.5,13.058],[-139.14,13.058],[-138.3853,13.0565],[-138.38546,12.4396],[-138.4644,12.4396],[-138.4644,12.7355],[-138.6453,12.7359],[-138.6453,12.936],[-139.0845,12.936],[-139.0845,12.331],[-138.8451,12.331],[-138.8451,12.2283],[-138.9414,12.2283],[-138.9414,11.8659],[-138.374,11.8659],[-138.374,11.6333],[-138.374,10.8333],[-138.625,10.8333],[-139.0258,10.8333],[-139.0258,10.9738],[-138.6339,10.9738],[-138.6339,11.3434],[-139.089,11.3434],[-139.089,11.4394],[-139.5,11.439],[-139.5,12.6645],[-139.5,13.058]]]]}},{"type":"Feature","properties":{"id":"ov-5","group":"overlap","members":"us-seax-3|isa-res-Block14|isa-im-C","area_km2":17241,"area_mi2":6657},"geometry":{"type":"MultiPolygon","coordinates":[[[[-134.0,15.40069],[-132.91667,15.399],[-132.91667,14.29],[-132.91667,14.29],[-132.9103,14.29],[-132.8,14.29],[-132.8,13.8667],[-133.2,13.8667],[-133.25,13.8667],[-133.25,14.0],[-133.25,14.0],[-133.533,14.0],[-133.53333,14.35],[-133.53333,14.35],[-134.0,14.35],[-134.0,15.40069]]]]}},{"type":"Feature","properties":{"id":"ov-6","group":"overlap","members":"us-tmc-2|us-amr-3","area_km2":16053,"area_mi2":6198},"geometry":{"type":"MultiPolygon","coordinates":[[[[-115.333,11.0],[-115.333,11.667],[-115.0,11.667],[-115.0,10.85321],[-115.002,10.305],[-115.82174,9.75],[-116.06667,9.75],[-116.06667,9.895],[-116.06667,11.0],[-115.333,11.0]]]]}},{"type":"Feature","properties":{"id":"ov-7","group":"overlap","members":"us-tmc-7|isa-exp-TOMLPMN1X_F","area_km2":15877,"area_mi2":6130},"geometry":{"type":"MultiPolygon","coordinates":[[[[-125.0,13.75],[-125.0,13.75],[-125.0,14.08333],[-123.58333,14.08333],[-123.58333,13.125],[-123.58333,13.125],[-123.58333,13.125],[-124.375,13.125],[-124.375,13.375],[-125.33319,13.375],[-125.3333,13.74999],[-125.3333,13.75],[-125.3333,13.75],[-125.0,13.75],[-125.0,13.75]]]]}},{"type":"Feature","properties":{"id":"ov-8","group":"overlap","members":"us-tmc-1|isa-exp-TOMLPMN1X_E","area_km2":15828,"area_mi2":6111},"geometry":{"type":"MultiPolygon","coordinates":[[[[-118.91667,9.895],[-118.91667,11.08333],[-117.81667,11.08333],[-117.81667,11.08333],[-117.81667,9.895],[-117.81667,9.895],[-118.91667,9.895]]]]}},{"type":"Feature","properties":{"id":"ov-9","group":"overlap","members":"us-tmc-6|isa-exp-TOMLPMN1X_C","area_km2":15823,"area_mi2":6109},"geometry":{"type":"MultiPolygon","coordinates":[[[[-131.0,15.8],[-130.0,15.8],[-130.0,15.333],[-130.0,15.333],[-129.3,15.333],[-129.01304,15.39987],[-129.01303,15.39987],[-128.58333,15.5],[-128.58333,15.0],[-131.0,15.0],[-131.0,15.8]]]]}},{"type":"Feature","properties":{"id":"ov-10","group":"overlap","members":"us-amr-3|isa-res-Block25","area_km2":13088,"area_mi2":5053},"geometry":{"type":"MultiPolygon","coordinates":[[[[-118.91667,11.08333],[-118.91667,9.895],[-117.81667,9.895],[-116.06667,9.895],[-116.06667,9.75],[-116.067,9.75],[-119.41667,9.75],[-119.41667,11.08333],[-118.91667,11.08333]]]]}},{"type":"Feature","properties":{"id":"ov-11","group":"overlap","members":"us-seax-5|isa-res-Block26|isa-im-A","area_km2":10578,"area_mi2":4084},"geometry":{"type":"MultiPolygon","coordinates":[[[[-136.60981,13.125],[-136.60985,12.99803],[-136.0,12.99734],[-136.0,12.5],[-137.5333,12.5],[-137.5333,13.125],[-136.60981,13.125]]]]}},{"type":"Feature","properties":{"id":"ov-12","group":"overlap","members":"us-tmc-3|isa-exp-TOMLPMN1X_A","area_km2":10286,"area_mi2":3971},"geometry":{"type":"MultiPolygon","coordinates":[[[[-152.51,8.1667],[-151.667,8.1667],[-151.667,7.1667],[-152.51,7.1667],[-152.51,8.1667]]]]}},{"type":"Feature","properties":{"id":"ov-13","group":"overlap","members":"us-tmc-5|isa-exp-TOMLPMN1X_B","area_km2":9960,"area_mi2":3845},"geometry":{"type":"MultiPolygon","coordinates":[[[[-132.8,13.86667],[-132.8,13.8667],[-132.8,13.8667],[-132.8,14.29],[-132.0,14.6667],[-132.0,13.5801],[-133.2,13.5801],[-133.2,13.86667],[-132.8,13.86667],[-132.8,13.86667]]]]}},{"type":"Feature","properties":{"id":"ov-14","group":"overlap","members":"us-tmc-4|isa-exp-NORIPMN1X_A","area_km2":8927,"area_mi2":3447},"geometry":{"type":"MultiPolygon","coordinates":[[[[-134.583,13.0],[-134.25,13.0],[-134.25,12.5],[-134.067,12.5],[-134.067,12.1933],[-133.83333,12.1933],[-133.83333,11.66667],[-133.83333,11.66667],[-133.83333,11.5],[-134.377,11.5],[-134.377,12.0],[-134.583,12.0],[-134.583,13.0]]]]}},{"type":"Feature","properties":{"id":"ov-15","group":"overlap","members":"us-tmc-7|isa-exp-TOMLPMN1X_D","area_km2":7003,"area_mi2":2704},"geometry":{"type":"MultiPolygon","coordinates":[[[[-123.583,13.0833],[-123.583,12.75],[-125.333,12.75],[-125.333,13.0833],[-123.583,13.0833]]]]}},{"type":"Feature","properties":{"id":"ov-16","group":"overlap","members":"us-seax-4|isa-res-Block27|isa-im-B","area_km2":5488,"area_mi2":2119},"geometry":{"type":"MultiPolygon","coordinates":[[[[-134.75,11.5],[-134.37747,11.5],[-134.377,11.5],[-134.377,11.5],[-134.377,11.5],[-133.833,11.5],[-133.833,11.66667],[-133.6667,11.66667],[-133.6667,10.98],[-134.1293,10.98],[-134.1293,11.2],[-134.75,11.2],[-134.75,11.5]]]]}},{"type":"Feature","properties":{"id":"ov-17","group":"overlap","members":"us-amr-2|isa-res-Block27","area_km2":4161,"area_mi2":1607},"geometry":{"type":"MultiPolygon","coordinates":[[[[-136.58,11.65],[-136.58,11.2],[-137.346,11.2],[-137.346,11.65],[-136.58,11.65]]]]}},{"type":"Feature","properties":{"id":"ov-18","group":"overlap","members":"us-seax-5|isa-res-Block26","area_km2":4152,"area_mi2":1603},"geometry":{"type":"MultiPolygon","coordinates":[[[[-137.53333,13.5],[-136.6097,13.5],[-136.60981,13.125],[-137.5333,13.125],[-137.5333,12.5],[-137.53333,13.5]]]]}},{"type":"Feature","properties":{"id":"ov-19","group":"overlap","members":"us-tmc-2|us-amr-10","area_km2":3764,"area_mi2":1453},"geometry":{"type":"MultiPolygon","coordinates":[[[[-115.333,12.06],[-115.333,13.0],[-115.0,13.0],[-115.0,12.06],[-115.333,12.06]]]]}},{"type":"Feature","properties":{"id":"ov-20","group":"overlap","members":"us-tmc-7|us-seax-2","area_km2":3747,"area_mi2":1447},"geometry":{"type":"MultiPolygon","coordinates":[[[[-123.58333,13.12462],[-123.58333,13.0833],[-125.333,13.0833],[-125.33314,13.22056],[-125.33319,13.375],[-124.375,13.375],[-124.375,13.125],[-124.375,13.125],[-124.375,13.125],[-123.58333,13.125],[-123.58333,13.12462]]]]}},{"type":"Feature","properties":{"id":"ov-21","group":"overlap","members":"us-tmc-5|isa-exp-NORIPMN1X_B","area_km2":3519,"area_mi2":1359},"geometry":{"type":"MultiPolygon","coordinates":[[[[-134.0,14.0],[-133.53333,14.0],[-133.53333,14.0],[-133.533,14.0],[-133.25,14.0],[-133.25,13.8667],[-133.25,13.86667],[-133.2,13.86667],[-133.2,13.5801],[-133.833,13.5801],[-133.96759,13.91851],[-134.0,14.0]]]]}},{"type":"Feature","properties":{"id":"ov-22","group":"overlap","members":"us-seax-1|isa-res-Block22","area_km2":3211,"area_mi2":1240},"geometry":{"type":"MultiPolygon","coordinates":[[[[-123.0,12.89],[-123.0,12.89],[-123.0,12.89],[-122.24198,12.89],[-122.24198,12.89],[-122.2341,12.4728],[-122.7389,12.4728],[-122.7389,12.7825],[-122.9031,12.7825],[-122.9031,12.4705],[-123.0,12.4705],[-123.0,12.89]]]]}},{"type":"Feature","properties":{"id":"ov-23","group":"overlap","members":"us-seax-3|isa-res-Block15|isa-im-C","area_km2":1951,"area_mi2":753},"geometry":{"type":"MultiPolygon","coordinates":[[[[-133.53333,14.0],[-133.53333,14.0],[-134.0,14.0],[-134.0,14.35],[-133.53333,14.35],[-133.53333,14.0]]]]}},{"type":"Feature","properties":{"id":"ov-24","group":"overlap","members":"us-seax-4|isa-res-Block27","area_km2":1650,"area_mi2":637},"geometry":{"type":"MultiPolygon","coordinates":[[[[-134.1293,10.98],[-134.75,10.98],[-134.75,11.2],[-134.1293,11.2],[-134.1293,10.98]]]]}}]}