{"type":"FeatureCollection","features":[{"type":"Feature","properties":{"id":"us-tmc-1","group":"us","company":"TMC","area_name":"USA-A (A-A)","area_km2":41008,"area_mi2":15833},"geometry":{"type":"MultiPolygon","coordinates":[[[[-118.91667,9.895],[-118.91667,11.08333],[-116.067,11.08333],[-116.067,11.0],[-116.06667,11.0],[-116.06667,9.895],[-118.91667,9.895]]]]}},{"type":"Feature","properties":{"id":"us-tmc-2","group":"us","company":"TMC","area_name":"USA-A (A-B)","area_km2":24173,"area_mi2":9333},"geometry":{"type":"MultiPolygon","coordinates":[[[[-115.333,11.0],[-115.333,13.0],[-115.0,13.0],[-115.0,9.75],[-116.06667,9.75],[-116.06667,9.895],[-116.06667,11.0],[-115.333,11.0]]]]}},{"type":"Feature","properties":{"id":"us-tmc-3","group":"us","company":"TMC","area_name":"USA-B (B-A)","area_km2":10286,"area_mi2":3971},"geometry":{"type":"MultiPolygon","coordinates":[[[[-152.51,8.1667],[-151.667,8.1667],[-151.667,7.1667],[-152.51,7.1667],[-152.51,8.1667]]]]}},{"type":"Feature","properties":{"id":"us-tmc-4","group":"us","company":"TMC","area_name":"USA-B (B-B)","area_km2":8930,"area_mi2":3448},"geometry":{"type":"MultiPolygon","coordinates":[[[[-134.583,13.0],[-134.25,13.0],[-134.25,12.5],[-134.067,12.5],[-134.067,12.1933],[-133.833,12.1933],[-133.833,11.5],[-134.377,11.5],[-134.377,12.0],[-134.583,12.0],[-134.583,13.0]]]]}},{"type":"Feature","properties":{"id":"us-tmc-5","group":"us","company":"TMC","area_name":"USA-B (B-C)","area_km2":13479,"area_mi2":5204},"geometry":{"type":"MultiPolygon","coordinates":[[[[-134.0,14.0],[-133.25,14.0],[-133.25,13.8667],[-132.8,13.8667],[-132.8,14.29],[-132.0,14.6667],[-132.0,13.5801],[-133.833,13.5801],[-134.0,14.0]]]]}},{"type":"Feature","properties":{"id":"us-tmc-6","group":"us","company":"TMC","area_name":"USA-B (B-D)","area_km2":15823,"area_mi2":6109},"geometry":{"type":"MultiPolygon","coordinates":[[[[-131.0,15.8],[-130.0,15.8],[-130.0,15.333],[-129.3,15.333],[-128.58333,15.5],[-128.58333,15.0],[-131.0,15.0],[-131.0,15.8]]]]}},{"type":"Feature","properties":{"id":"us-tmc-7","group":"us","company":"TMC","area_name":"USA-B (B-E)","area_km2":26627,"area_mi2":10281},"geometry":{"type":"MultiPolygon","coordinates":[[[[-125.3333,13.75],[-125.0,13.75],[-125.0,14.08333],[-123.58333,14.08333],[-123.58333,13.125],[-123.58333,13.0833],[-123.583,13.0833],[-123.583,12.75],[-125.333,12.75],[-125.3333,13.75]]]]}},{"type":"Feature","properties":{"id":"us-tmc-8","group":"us","company":"TMC","area_name":"USA-B (B-F)","area_km2":46676,"area_mi2":18022},"geometry":{"type":"MultiPolygon","coordinates":[[[[-122.1667,14.935],[-121.0976,14.935],[-121.0976,14.9286],[-120.7148,14.9286],[-120.7148,14.935],[-120.5,14.935],[-120.5,14.5],[-120.75,14.5],[-120.75,14.3333],[-120.98963,14.3333],[-120.99292,13.66903],[-121.167,13.6667],[-121.167,12.0],[-121.6,12.0],[-121.6,12.6],[-122.167,12.6],[-122.167,12.89],[-123.0,12.89],[-123.0,13.35],[-122.75,13.35],[-122.75,14.16667],[-122.33333,14.16667],[-122.333,14.0],[-122.1667,14.0],[-122.1667,14.935]]]]}},{"type":"Feature","properties":{"id":"us-amr-1","group":"us","company":"AMR","area_name":"Washington","area_km2":57612,"area_mi2":22244},"geometry":{"type":"MultiPolygon","coordinates":[[[[-115.0,14.0],[-116.0,14.0],[-116.0,14.9667],[-117.25,14.9667],[-117.25,14.75],[-118.25,14.75],[-118.25,14.5],[-118.83333,14.5],[-118.8333,15.0],[-119.3333,15.0],[-119.3333,14.6667],[-120.5,14.6667],[-120.5,15.3333],[-120.333,15.3333],[-120.333,15.8333],[-119.465,15.8333],[-117.25,15.833],[-117.25,15.3333],[-116.3,15.3333],[-115.0,14.55974],[-115.0,14.0]]]]}},{"type":"Feature","properties":{"id":"us-amr-2","group":"us","company":"AMR","area_name":"Jefferson","area_km2":4161,"area_mi2":1607},"geometry":{"type":"MultiPolygon","coordinates":[[[[-136.58,11.65],[-136.58,11.2],[-137.346,11.2],[-137.346,11.65],[-136.58,11.65]]]]}},{"type":"Feature","properties":{"id":"us-amr-3","group":"us","company":"AMR","area_name":"Lincoln","area_km2":29142,"area_mi2":11252},"geometry":{"type":"MultiPolygon","coordinates":[[[[-119.41667,9.75],[-119.41667,11.08333],[-118.91667,11.08333],[-118.91667,9.895],[-117.81667,9.895],[-116.06667,9.895],[-116.06667,11.0],[-115.333,11.0],[-115.333,11.667],[-115.0,11.667],[-115.0,10.85321],[-115.002,10.305],[-115.82174,9.75],[-116.067,9.75],[-119.41667,9.75]]]]}},{"type":"Feature","properties":{"id":"us-amr-4","group":"us","company":"AMR","area_name":"Monroe","area_km2":4450,"area_mi2":1718},"geometry":{"type":"MultiPolygon","coordinates":[[[[-140.1,12.375],[-140.1,12.35],[-139.875,12.35],[-139.875,11.625],[-140.375,11.625],[-140.375,12.375],[-140.1,12.375]]]]}},{"type":"Feature","properties":{"id":"us-amr-5","group":"us","company":"AMR","area_name":"Tyler","area_km2":6358,"area_mi2":2455},"geometry":{"type":"MultiPolygon","coordinates":[[[[-142.125,9.875],[-141.375,9.875],[-141.375,9.625],[-141.625,9.625],[-141.625,8.625],[-141.875,8.625],[-141.875,9.2813],[-142.125,9.2813],[-142.125,9.875]]]]}},{"type":"Feature","properties":{"id":"us-amr-6","group":"us","company":"AMR","area_name":"Harding","area_km2":17511,"area_mi2":6761},"geometry":{"type":"MultiPolygon","coordinates":[[[[-134.75,10.98],[-134.1293,10.98],[-134.1293,9.79749],[-133.16667,9.79749],[-133.16667,9.58333],[-132.83333,9.58333],[-132.83333,9.5],[-134.673,9.5],[-134.673,9.61],[-135.25,9.60999],[-135.25,10.0997],[-134.568,10.0997],[-134.568,10.6667],[-135.0,10.6667],[-135.0,10.98],[-134.75,10.98]]]]}},{"type":"Feature","properties":{"id":"us-amr-7","group":"us","company":"AMR","area_name":"Adams","area_km2":10487,"area_mi2":4049},"geometry":{"type":"MultiPolygon","coordinates":[[[[-142.125,8.8125],[-142.125,8.4063],[-142.4375,8.4063],[-142.4375,8.3125],[-142.6875,8.3125],[-142.6875,8.5625],[-142.5625,8.5625],[-142.5625,8.6875],[-142.9375,8.6875],[-142.9375,8.3125],[-143.5625,8.3125],[-144.125,8.3125],[-144.125,8.7333],[-144.12499,8.8125],[-142.125,8.8125]]]]}},{"type":"Feature","properties":{"id":"us-amr-8","group":"us","company":"AMR","area_name":"McKinlay","area_km2":6077,"area_mi2":2346},"geometry":{"type":"MultiPolygon","coordinates":[[[[-140.125,9.625],[-140.125,9.125],[-139.625,9.125],[-139.625,8.875],[-139.875,8.875],[-140.375,8.875],[-140.375,9.125],[-140.625,9.125],[-140.625,9.375],[-140.875,9.375],[-140.875,9.625],[-140.125,9.625]]]]}},{"type":"Feature","properties":{"id":"us-amr-9","group":"us","company":"AMR","area_name":"Roosevelt","area_km2":8248,"area_mi2":3184},"geometry":{"type":"MultiPolygon","coordinates":[[[[-123.33245,16.23095],[-123.33623,16.05061],[-122.333,16.04156],[-122.33333,15.726],[-123.952,15.726],[-123.952,16.06667],[-124.33333,16.06667],[-124.33333,16.23333],[-123.33245,16.23095]]]]}},{"type":"Feature","properties":{"id":"us-amr-10","group":"us","company":"AMR","area_name":"Wilson","area_km2":3764,"area_mi2":1453},"geometry":{"type":"MultiPolygon","coordinates":[[[[-115.333,13.0],[-115.0,13.0],[-115.0,12.06],[-115.333,12.06],[-115.333,13.0]]]]}},{"type":"Feature","properties":{"id":"us-seax-1","group":"us","company":"SEAX","area_name":"Clark","area_km2":25409,"area_mi2":9811},"geometry":{"type":"MultiPolygon","coordinates":[[[[-121.16667,11.33087],[-121.16667,11.0],[-121.0,11.0],[-121.0,10.75],[-120.5,10.75],[-120.5,10.5],[-121.5,10.5],[-121.5,11.0],[-122.167,11.0],[-122.167,11.3333],[-123.333,11.3333],[-123.333,12.9333],[-123.0,12.93333],[-123.0,12.89],[-122.24198,12.89],[-122.2341,12.4728],[-122.7389,12.4728],[-122.7389,12.7825],[-122.9031,12.7825],[-122.9031,12.4705],[-123.0,12.4705],[-123.0,12.0],[-122.096,12.0],[-122.1067,11.33401],[-121.16667,11.33087]]]]}},{"type":"Feature","properties":{"id":"us-seax-2","group":"us","company":"SEAX","area_name":"Coulter","area_km2":3747,"area_mi2":1447},"geometry":{"type":"MultiPolygon","coordinates":[[[[-125.3333,13.375],[-124.375,13.375],[-124.375,13.125],[-123.58333,13.125],[-123.583,13.0833],[-125.333,13.0833],[-125.3333,13.375]]]]}},{"type":"Feature","properties":{"id":"us-seax-3","group":"us","company":"SEAX","area_name":"Pike","area_km2":19193,"area_mi2":7410},"geometry":{"type":"MultiPolygon","coordinates":[[[[-134.00004,15.40069],[-132.91667,15.399],[-132.91667,14.29],[-132.8,14.29],[-132.8,13.86667],[-133.2,13.8667],[-133.25,13.8667],[-133.25,14.0],[-133.53333,14.0],[-134.0,14.0],[-134.0,14.35],[-134.00004,15.40069]]]]}},{"type":"Feature","properties":{"id":"us-seax-4","group":"us","company":"SEAX","area_name":"Fremont","area_km2":7139,"area_mi2":2756},"geometry":{"type":"MultiPolygon","coordinates":[[[[-134.75,11.5],[-134.37747,11.5],[-133.833,11.5],[-133.833,11.66667],[-133.66667,11.66667],[-133.66667,10.98],[-134.1293,10.98],[-134.75,10.98],[-134.75,11.5]]]]}},{"type":"Feature","properties":{"id":"us-seax-5","group":"us","company":"SEAX","area_name":"Carson","area_km2":14730,"area_mi2":5687},"geometry":{"type":"MultiPolygon","coordinates":[[[[-137.53333,13.5],[-136.6097,13.5],[-136.60985,12.99803],[-136.0,12.99734],[-136.0,12.5],[-137.5333,12.5],[-137.53333,13.5]]]]}},{"type":"Feature","properties":{"id":"us-seax-6","group":"us","company":"SEAX","area_name":"Smith","area_km2":18995,"area_mi2":7334},"geometry":{"type":"MultiPolygon","coordinates":[[[[-139.767,12.6645],[-139.767,13.05],[-139.76687,13.058],[-139.5,13.058],[-139.14,13.058],[-138.38529,13.0565],[-138.374,12.4396],[-138.4644,12.4396],[-138.4644,12.7355],[-138.6453,12.7359],[-138.6453,12.936],[-139.0845,12.936],[-139.0845,12.331],[-138.8451,12.331],[-138.8451,12.2283],[-138.9414,12.2283],[-138.9414,11.8659],[-138.374,11.8659],[-138.374,11.6333],[-138.374,10.8333],[-138.625,10.8333],[-139.026,10.8333],[-139.0258,10.9738],[-138.6339,10.9738],[-138.6339,11.3434],[-139.089,11.3434],[-139.089,11.4394],[-139.5,11.439],[-139.5,12.6645],[-139.767,12.6645]]]]}},{"type":"Feature","properties":{"id":"us-seax-7","group":"us","company":"SEAX","area_name":"Powell","area_km2":13553,"area_mi2":5233},"geometry":{"type":"MultiPolygon","coordinates":[[[[-140.875,11.125],[-140.375,11.125],[-140.375,11.375],[-140.125,11.375],[-140.125,11.125],[-139.6,11.125],[-139.5,11.125],[-139.5,10.8332],[-140.125,10.8333],[-140.125,10.375],[-139.625,10.375],[-139.625,10.125],[-140.625,10.125],[-140.625,9.875],[-140.875,9.875],[-140.875,10.125],[-141.125,10.125],[-141.125,10.375],[-140.375,10.375],[-140.375,10.625],[-140.875,10.625],[-140.875,11.125]]]]}},{"type":"Feature","properties":{"id":"us-seax-8","group":"us","company":"SEAX","area_name":"Pryor","area_km2":20501,"area_mi2":7915},"geometry":{"type":"MultiPolygon","coordinates":[[[[-128.58333,11.0833],[-128.583,11.6667],[-127.71667,11.66667],[-127.0,11.66667],[-127.0,12.25],[-126.0,12.25],[-126.0,11.6667],[-126.25,11.6667],[-126.25,11.5],[-126.833,11.5],[-126.833,11.0868],[-128.117,11.0833],[-128.58333,11.0833]]]]}},{"type":"Feature","properties":{"id":"us-seax-9","group":"us","company":"SEAX","area_name":"Lewis","area_km2":26439,"area_mi2":10208},"geometry":{"type":"MultiPolygon","coordinates":[[[[-144.9375,9.125],[-145.3658,9.125],[-145.5,9.12696],[-145.5,9.5],[-145.0,9.5],[-144.75,9.5],[-144.75,9.75],[-144.0,9.75],[-144.0,10.0],[-143.75,10.0],[-143.75,9.25],[-142.75,9.25],[-142.75,9.75],[-142.25,9.75],[-142.25,9.875],[-142.125,9.875],[-142.125,9.2813],[-142.125,8.8125],[-144.12499,8.8125],[-144.125,9.0625],[-144.9375,9.0625],[-144.9375,9.125]]]]}},{"type":"Feature","properties":{"id":"us-aom-1","group":"us","company":"AOM","area_name":"Area A","area_km2":45108,"area_mi2":17416},"geometry":{"type":"MultiPolygon","coordinates":[[[[-129.67331,17.55],[-129.67331,17.16134],[-128.83763,17.16134],[-128.83763,16.66993],[-129.49731,16.66993],[-129.49731,16.83653],[-130.08525,16.83653],[-130.08525,16.66895],[-130.25227,16.66895],[-130.25227,16.58654],[-131.33557,16.58654],[-131.33557,16.4191],[-132.66409,16.4191],[-132.66409,16.83518],[-133.00196,16.83551],[-133.00196,16.66878],[-133.25,16.66878],[-133.25,17.55],[-129.67331,17.55]]]]}},{"type":"Feature","properties":{"id":"us-aom-2","group":"us","company":"AOM","area_name":"Area B","area_km2":20465,"area_mi2":7902},"geometry":{"type":"MultiPolygon","coordinates":[[[[-134.0,16.6667],[-133.25307,16.6667],[-133.25307,16.32993],[-132.91973,16.32993],[-132.91973,16.16397],[-131.24693,16.16397],[-131.24693,16.37992],[-130.83641,16.37992],[-130.83641,16.1635],[-130.50263,16.1635],[-130.50263,16.00395],[-131.00337,16.00395],[-131.00337,15.75706],[-132.00476,15.75706],[-132.00476,15.65699],[-132.91034,15.65699],[-132.91034,15.92299],[-134.0,15.92299],[-134.0,16.6667]]]]}},{"type":"Feature","properties":{"id":"us-aom-3","group":"us","company":"AOM","area_name":"Area C","area_km2":50444,"area_mi2":19477},"geometry":{"type":"MultiPolygon","coordinates":[[[[-123.32845,17.86332],[-123.32845,16.47707],[-122.343,16.47707],[-122.343,16.052],[-123.33,16.052],[-123.33,16.23503],[-125.33146,16.23503],[-125.33146,16.7515],[-125.66479,16.7515],[-125.66479,16.91906],[-125.99718,16.91906],[-125.99718,17.16187],[-125.86007,17.16187],[-125.86007,17.87277],[-123.32845,17.86332]]]]}},{"type":"Feature","properties":{"id":"us-aom-4","group":"us","company":"AOM","area_name":"Area D","area_km2":7437,"area_mi2":2871},"geometry":{"type":"MultiPolygon","coordinates":[[[[-122.09444,11.99689],[-121.16868,11.99689],[-121.16868,11.33088],[-122.09444,11.33088],[-122.09444,11.99689]]]]}},{"type":"Feature","properties":{"id":"us-aom-5","group":"us","company":"AOM","area_name":"Area E","area_km2":22662,"area_mi2":8750},"geometry":{"type":"MultiPolygon","coordinates":[[[[-122.25,9.1],[-122.25,7.46],[-123.38418,7.46],[-123.38418,9.1],[-122.25,9.1]]]]}},{"type":"Feature","properties":{"id":"us-eco-1","group":"us","company":"ECO","area_name":null,"area_km2":50048,"area_mi2":19324},"geometry":{"type":"MultiPolygon","coordinates":[[[[-158.04503,11.51184],[-158.02478,9.49986],[-157.10656,9.33106],[-157.09305,9.08125],[-158.01803,8.97323],[-158.01128,8.4466],[-156.877,8.45335],[-156.87923,9.88024],[-156.37541,9.87578],[-156.37764,10.12546],[-156.87477,10.12546],[-156.88004,10.62256],[-156.37767,10.62568],[-156.37767,10.87678],[-156.12607,10.87449],[-156.12149,10.37358],[-155.87447,10.37587],[-155.87218,10.12427],[-156.12149,10.12427],[-156.12149,9.87496],[-155.12425,9.87724],[-155.12882,10.12198],[-155.62287,10.12427],[-155.62745,10.6206],[-155.87447,10.62975],[-155.87697,11.09441],[-156.88422,11.10314],[-156.89268,11.5074],[-158.04503,11.51184]]]]}},{"type":"Feature","properties":{"id":"us-eco-2","group":"us","company":"ECO","area_name":null,"area_km2":1749,"area_mi2":675},"geometry":{"type":"MultiPolygon","coordinates":[[[[-153.12444,9.3755],[-152.8754,9.37546],[-152.87536,9.55017],[-152.33987,9.55018],[-152.33979,9.67868],[-153.12316,9.67845],[-153.12444,9.3755]]]]}},{"type":"Feature","properties":{"id":"us-eco-3","group":"us","company":"ECO","area_name":null,"area_km2":1660,"area_mi2":641},"geometry":{"type":"MultiPolygon","coordinates":[[[[-152.40791,9.16761],[-152.40825,9.40825],[-151.8418,9.40822],[-151.84092,9.1667],[-152.40791,9.16761]]]]}},{"type":"Feature","properties":{"id":"us-eco-4","group":"us","company":"ECO","area_name":null,"area_km2":16181,"area_mi2":6247},"geometry":{"type":"MultiPolygon","coordinates":[[[[-128.11689,11.08315],[-126.83572,11.08342],[-126.83572,10.32668],[-127.02542,10.32056],[-127.02393,9.91683],[-127.99913,9.91727],[-127.99971,10.66695],[-128.16645,10.66707],[-128.16692,10.81338],[-128.11682,10.81321],[-128.11689,11.08315]]]]}},{"type":"Feature","properties":{"id":"us-eco-5","group":"us","company":"ECO","area_name":null,"area_km2":12807,"area_mi2":4945},"geometry":{"type":"MultiPolygon","coordinates":[[[[-123.18265,9.10035],[-122.24778,9.1023],[-122.24696,8.83983],[-121.50952,8.83582],[-121.50952,9.30843],[-122.01402,9.30263],[-122.00532,9.63897],[-122.50692,9.63607],[-122.50692,9.82163],[-123.19409,9.82163],[-123.18265,9.10035]]]]}},{"type":"Feature","properties":{"id":"us-eco-6","group":"us","company":"ECO","area_name":null,"area_km2":17000,"area_mi2":6564,"outside_ccz":true},"geometry":{"type":"MultiPolygon","coordinates":[[[[-111.86866,14.56457],[-112.59767,15.44591],[-113.30129,15.06509],[-114.11009,14.89462],[-115.00231,14.87286],[-114.99869,14.56457],[-111.86866,14.56457]]]]}},{"type":"Feature","properties":{"id":"us-eco-7","group":"us","company":"ECO","area_name":null,"area_km2":35698,"area_mi2":13783},"geometry":{"type":"MultiPolygon","coordinates":[[[[-118.50063,17.29953],[-119.59796,17.31498],[-119.59796,16.46494],[-120.66437,16.44949],[-120.65407,15.84158],[-117.45997,15.84158],[-117.45997,15.84158],[-118.50063,17.29953]]]]}},{"type":"Feature","properties":{"id":"us-lm-1","group":"us","company":"LM","area_name":"USA-1","area_km2":168800,"area_mi2":65174},"geometry":{"type":"MultiPolygon","coordinates":[[[[-142.25,10.75],[-142.25,9.75],[-142.75,9.75],[-142.75,9.25],[-143.75,9.25],[-143.75,10.0],[-144.0,10.0],[-144.0,9.75],[-144.75,9.75],[-144.75,9.5],[-145.0,9.5],[-145.0,11.0],[-143.63167,11.0],[-143.63167,11.83333],[-143.25,11.83333],[-143.25,10.75],[-142.25,10.75]]],[[[-132.5,10.5],[-133.5,10.5],[-133.5,11.0],[-133.66667,11.0],[-133.66667,11.66667],[-133.83333,11.66667],[-133.83333,12.19333],[-134.06667,12.19333],[-134.06667,12.5],[-134.25,12.5],[-134.25,13.0],[-134.0,13.0],[-134.0,12.83333],[-133.83333,12.83333],[-133.51,12.83333],[-133.51,12.51833],[-132.25,12.51833],[-132.25,12.83333],[-132.25,13.33333],[-132.25,13.48333],[-131.0,13.48333],[-131.0,13.33333],[-130.0,13.33333],[-130.0,13.33667],[-128.58333,13.33667],[-128.58333,11.66667],[-131.25,11.66667],[-131.25,11.5],[-131.5,11.5],[-131.5,11.0],[-132.5,11.0],[-132.5,10.5]]]]}},{"type":"Feature","properties":{"id":"us-lm-2","group":"us","company":"LM","area_name":"USA-4","area_km2":66095,"area_mi2":25519},"geometry":{"type":"MultiPolygon","coordinates":[[[[-128.0,14.33333],[-126.25,14.33333],[-126.25,13.75],[-125.33333,13.75],[-125.33333,12.25],[-127.0,12.25],[-127.0,11.66667],[-127.71667,11.66667],[-127.71667,12.0],[-128.0,12.0],[-128.0,14.33333]]]]}}]}